{"type":"Feature","properties":{"kind":"lake","name":"Dishui Lake","zh":"滴水湖","sourceId":"osm-relation-5606982","rank":6},"geometry":{"type":"Polygon","coordinates":[[[121.9421011,30.910308],[121.9417025,30.9105262],[121.941455,30.91032],[121.9411017,30.910372],[121.9406592,30.9104962],[121.9403024,30.910556],[121.9400449,30.9105468],[121.9397982,30.9104272],[121.9396411,30.9101799],[121.9391793,30.9103559],[121.9393088,30.9106559],[121.9393202,30.9109687],[121.9391689,30.9112362],[121.9386722,30.911374],[121.9382267,30.9112724],[121.937903,30.9111028],[121.9376393,30.9110024],[121.9374782,30.9110368],[121.9372945,30.910979],[121.9371447,30.9108677],[121.9370742,30.9107029],[121.93726,30.9104398],[121.9374175,30.9102385],[121.9378722,30.9100891],[121.9380391,30.9098925],[121.9380976,30.9096942],[121.9382827,30.9095862],[121.9384008,30.9095095],[121.9385525,30.9096128],[121.938944,30.910007],[121.9390976,30.9102104],[121.9395596,30.9100382],[121.9394441,30.9097736],[121.9394441,30.9094698],[121.9395836,30.9092765],[121.9397767,30.9091477],[121.9400878,30.9089728],[121.9402917,30.9087518],[121.9403711,30.9084333],[121.9404848,30.9082179],[121.9406887,30.9079878],[121.9409998,30.9076288],[121.9411393,30.9073618],[121.9412036,30.9071133],[121.9410856,30.9069108],[121.940914,30.9067635],[121.9406672,30.9066898],[121.9404741,30.9067083],[121.9402059,30.9066622],[121.9400342,30.9064965],[121.9399806,30.906202],[121.9400235,30.9059534],[121.9401951,30.9057877],[121.9403131,30.9056404],[121.9403239,30.9053182],[121.9403282,30.9050365],[121.9404312,30.9048211],[121.9405814,30.9046554],[121.9407852,30.9044805],[121.9407316,30.9043332],[121.9406243,30.904278],[121.9403346,30.9042872],[121.9400342,30.9042964],[121.9398303,30.9043332],[121.9396265,30.9044161],[121.9394656,30.9044529],[121.9392801,30.9043705],[121.9391858,30.9042654],[121.9391567,30.904136],[121.9383857,30.9041215],[121.9383962,30.9050658],[121.9383605,30.9052538],[121.9382575,30.9053679],[121.9381609,30.9054692],[121.9381519,30.9055721],[121.9381931,30.9056993],[121.9382961,30.9057877],[121.9384828,30.905865],[121.9386437,30.9059847],[121.938751,30.9061228],[121.9388433,30.9062572],[121.9388969,30.9064321],[121.9389012,30.9065646],[121.9388648,30.9066898],[121.9385686,30.9071722],[121.9384034,30.9073066],[121.9381459,30.9074539],[121.937706,30.9076012],[121.9374056,30.90773],[121.9372061,30.9078718],[121.9370773,30.9080375],[121.9369765,30.9083652],[121.93697,30.9085806],[121.9368048,30.908669],[121.9365473,30.9086782],[121.9364014,30.9087739],[121.936204,30.9089728],[121.9360259,30.9092986],[121.9359937,30.9095564],[121.9360795,30.9098049],[121.9362512,30.9099706],[121.9361718,30.9102615],[121.9360903,30.9105045],[121.9359894,30.9106757],[121.9358178,30.9107954],[121.9355925,30.9108874],[121.9353929,30.9109187],[121.9349748,30.9109213],[121.9345284,30.9108966],[121.9343372,30.9108874],[121.9342302,30.9109272],[121.9341299,30.9109766],[121.9339921,30.9109962],[121.9336762,30.9109334],[121.9333568,30.910863],[121.9329973,30.9107787],[121.9326484,30.9106778],[121.932524,30.91051],[121.9323953,30.910418],[121.9322021,30.9104087],[121.9320305,30.910418],[121.9317279,30.9103057],[121.9314447,30.9102007],[121.9313422,30.9100335],[121.9300935,30.9094869],[121.9292073,30.9090316],[121.9289323,30.9087764],[121.9286985,30.9085927],[121.9284418,30.9083267],[121.9284174,30.9082969],[121.9283216,30.90818],[121.9282594,30.9081908],[121.928283,30.9082627],[121.9280652,30.9082796],[121.9278425,30.9082684],[121.9277507,30.908235],[121.9276676,30.9081],[121.9275541,30.9079341],[121.9274198,30.907808],[121.9272662,30.9077237],[121.9271297,30.9076648],[121.9270549,30.9076459],[121.9269831,30.9075926],[121.9269521,30.9074419],[121.9269504,30.9072887],[121.9269616,30.9071417],[121.9270351,30.9071564],[121.9270497,30.9070938],[121.9265736,30.9067726],[121.9262563,30.9065137],[121.926168,30.9064261],[121.9261706,30.9063675],[121.9261638,30.9063008],[121.9261385,30.9062289],[121.9260712,30.9061555],[121.9260179,30.9061181],[121.9259572,30.9060951],[121.9258852,30.9060807],[121.9258544,30.9060423],[121.9258043,30.9059758],[121.9257349,30.9059904],[121.925537,30.9057372],[121.9253159,30.9053741],[121.9252108,30.9051554],[121.9251247,30.9049274],[121.9249962,30.9043901],[121.9249456,30.9043401],[121.9249016,30.9043137],[121.924835,30.904303],[121.9247564,30.9043212],[121.9246215,30.9041286],[121.9245164,30.9039787],[121.9247415,30.9038965],[121.9246998,30.9038013],[121.9245807,30.9038095],[121.9245114,30.9035651],[121.9244057,30.9031558],[121.9243374,30.902792],[121.9243061,30.9025373],[121.9242728,30.9021452],[121.9242691,30.9017251],[121.9241551,30.9016878],[121.9241257,30.9017976],[121.9240673,30.9017023],[121.9239558,30.9014895],[121.9239731,30.9013598],[121.9238873,30.9012033],[121.9238444,30.9010468],[121.923898,30.9009547],[121.9239088,30.900789],[121.9238748,30.9005801],[121.9238479,30.9005524],[121.9238077,30.9005111],[121.9237755,30.9004559],[121.9237353,30.9003316],[121.9236784,30.900234],[121.9236597,30.9001511],[121.9237616,30.900135],[121.9237621,30.8999633],[121.9236736,30.8999265],[121.9236731,30.8997208],[121.9237482,30.8996862],[121.9237541,30.8995122],[121.923657,30.8994906],[121.9236653,30.8994485],[121.9236811,30.8993686],[121.9237187,30.8992351],[121.923775,30.8991477],[121.9238447,30.8990855],[121.9238917,30.8988787],[121.9238997,30.8988135],[121.9238968,30.8987287],[121.9238619,30.8986375],[121.923832,30.8985625],[121.9238473,30.8984875],[121.923896,30.8984221],[121.9239563,30.8983488],[121.9239652,30.8982734],[121.9239654,30.8981714],[121.9239799,30.8980654],[121.9240307,30.8979573],[121.9241014,30.8978481],[121.9241382,30.8979671],[121.9242504,30.897926],[121.9242433,30.897625],[121.9242428,30.8974343],[121.9242747,30.8970001],[121.9243436,30.8965638],[121.9244454,30.8961502],[121.9245465,30.8958346],[121.92466,30.8958446],[121.9246918,30.8957567],[121.9245954,30.8957164],[121.9246602,30.8955124],[121.9247213,30.89532],[121.9248273,30.8953563],[121.9249204,30.8953741],[121.9250624,30.8953604],[121.9252073,30.8953398],[121.9252828,30.8953041],[121.9253046,30.8952531],[121.9253061,30.8951934],[121.9252359,30.8951036],[121.9251688,30.8949693],[121.92513,30.8949327],[121.9250463,30.8948944],[121.9251576,30.8945048],[121.9254001,30.8939763],[121.9258158,30.8935368],[121.9259379,30.8934274],[121.9259798,30.8933899],[121.9260589,30.8933954],[121.9262197,30.8933973],[121.926401,30.8933567],[121.9265308,30.8932517],[121.926579,30.8931495],[121.9282509,30.8935906],[121.9283548,30.8937959],[121.9290307,30.894155],[121.9293311,30.8940721],[121.9297281,30.893888],[121.9300821,30.8939248],[121.9305606,30.8938659],[121.9314619,30.8936357],[121.9317515,30.8935897],[121.9319811,30.8936578],[121.932127,30.8937922],[121.9322236,30.8939856],[121.932201,30.8944081],[121.9334862,30.8943979],[121.9339295,30.8943906],[121.933923,30.8938051],[121.9342943,30.8936725],[121.9345346,30.893667],[121.9347878,30.8937094],[121.9350495,30.8937353],[121.9352529,30.8937134],[121.9354286,30.8936734],[121.9355272,30.8936317],[121.9355901,30.8935092],[121.935549,30.8933785],[121.9354526,30.8931644],[121.935427,30.8930781],[121.9354063,30.8920532],[121.935389,30.8919917],[121.9352717,30.8918683],[121.9351639,30.8918287],[121.9350597,30.891817],[121.9349776,30.8917832],[121.9348977,30.8917207],[121.9348375,30.8916301],[121.9348242,30.891537],[121.93484,30.8908017],[121.9340368,30.8908092],[121.933687,30.8908405],[121.9334145,30.8908829],[121.9332917,30.8908615],[121.9327815,30.8907724],[121.9324489,30.8907079],[121.9322716,30.890707],[121.9322404,30.8907184],[121.9318997,30.8909727],[121.9318725,30.8909924],[121.9316942,30.8911811],[121.931376,30.8913893],[121.9311829,30.8915117],[121.9310496,30.8916752],[121.9309962,30.8917891],[121.9309513,30.8920057],[121.9309133,30.8921162],[121.9308933,30.8921682],[121.9308514,30.8922108],[121.9307596,30.8922053],[121.9306357,30.8921626],[121.9305533,30.8921687],[121.9304289,30.8922418],[121.9303334,30.8923283],[121.9301943,30.8923615],[121.9300223,30.8923442],[121.9298584,30.8922566],[121.9296986,30.8922022],[121.9294721,30.8923463],[121.9292629,30.8923164],[121.9290644,30.892321],[121.928823,30.8923624],[121.9286862,30.8923624],[121.9285306,30.8923049],[121.9278842,30.8918675],[121.9279413,30.8916923],[121.9279885,30.8916177],[121.9280899,30.8915652],[121.9282657,30.8914689],[121.9284861,30.8913011],[121.928662,30.89121],[121.9287778,30.891107],[121.9287862,30.8910251],[121.9287483,30.8908926],[121.928655,30.8907027],[121.9288886,30.890558],[121.9301331,30.8898531],[121.9304936,30.8899438],[121.9307339,30.8899866],[121.9309147,30.8899691],[121.9310799,30.88983],[121.931347,30.8895981],[121.9318029,30.8895705],[121.9319612,30.8895751],[121.932039,30.8895521],[121.9320524,30.889483],[121.9321432,30.8890944],[121.9324972,30.8891128],[121.932803,30.8890368],[121.933003,30.8889186],[121.9331651,30.8887537],[121.9333264,30.8886751],[121.9335142,30.8886198],[121.9337208,30.8886145],[121.9366926,30.88885],[121.9368696,30.8888615],[121.9369769,30.8888339],[121.9371083,30.8887441],[121.9371781,30.8886958],[121.9372639,30.8886728],[121.9374382,30.8886521],[121.9377226,30.8885232],[121.9377869,30.8884863],[121.9378567,30.888415],[121.9379935,30.8883989],[121.9385955,30.8884536],[121.9397381,30.8886124],[121.9402384,30.888737],[121.9407359,30.888861],[121.9417444,30.8891741],[121.9430292,30.8897127],[121.9438794,30.8901315],[121.9439411,30.8903594],[121.9442698,30.8906016],[121.9443396,30.8907398],[121.9444737,30.8908433],[121.9445725,30.8910118],[121.9447768,30.8910781],[121.9449845,30.8910799],[121.9452162,30.891334],[121.9453225,30.8918234],[121.9456084,30.8920012],[121.9459301,30.8922013],[121.9469049,30.8926359],[121.9470781,30.8926663],[121.9472095,30.892786],[121.94729,30.8928826],[121.9473669,30.8928855],[121.9474013,30.8929229],[121.9475658,30.8931017],[121.9477598,30.8933833],[121.9477795,30.8934119],[121.9485894,30.8945877],[121.94882,30.8950158],[121.9490559,30.8955495],[121.9495024,30.8968258],[121.9497277,30.8976267],[121.9498618,30.8986164],[121.9499476,30.899491],[121.9499208,30.9003194],[121.9499089,30.9004421],[121.9498136,30.9014288],[121.9497599,30.9015669],[121.9497067,30.901624],[121.9496128,30.9016447],[121.9495377,30.9016194],[121.949417,30.901677],[121.9492158,30.9017],[121.9489422,30.9017943],[121.9487733,30.901914],[121.9486231,30.9020889],[121.9485801,30.9023076],[121.9486043,30.9025975],[121.9485909,30.9028461],[121.9485533,30.9030854],[121.9486311,30.903357],[121.9488028,30.9034859],[121.9487384,30.9036723],[121.9487123,30.9037885],[121.9485268,30.9041558],[121.9484675,30.9042868],[121.9483978,30.9045699],[121.9483682,30.9048898],[121.9482636,30.9053592],[121.9480315,30.905773],[121.947774,30.9061596],[121.9473234,30.9066751],[121.9466002,30.9074263],[121.9458063,30.9080983],[121.9451948,30.9085355],[121.9446475,30.9089083],[121.9439448,30.9093272],[121.9435629,30.9095472],[121.9433069,30.9096121],[121.9431138,30.9096029],[121.9425823,30.9096125],[121.9422926,30.9097644],[121.9419814,30.9098427],[121.9419417,30.9098929],[121.9419497,30.9100816],[121.9421011,30.910308]],[[121.9366697,30.8999086],[121.9367257,30.8999077],[121.936778,30.8998903],[121.9368202,30.8998587],[121.9368473,30.8998166],[121.9368509,30.8997972],[121.936856,30.8997691],[121.9368452,30.8997219],[121.9368162,30.8996808],[121.9367726,30.8996506],[121.9367196,30.899635],[121.9366636,30.8996359],[121.9366113,30.8996533],[121.9365691,30.8996849],[121.936542,30.899727],[121.9365333,30.8997745],[121.9365441,30.8998217],[121.9365731,30.8998628],[121.9366167,30.899893],[121.9366697,30.8999086]],[[121.9244945,30.8985225],[121.9245169,30.9011653],[121.9247954,30.9015712],[121.9276087,30.9015554],[121.9275912,30.8992517],[121.9275819,30.8980351],[121.9248143,30.8980506],[121.9244945,30.8985225]]]}}