{"type":"FeatureCollection","name":"ne_10m_lakes","crs":{"type":"name","properties":{"name":"urn:ogc:def:crs:OGC:1.3:CRS84"}},"features":[{"type":"Feature","properties":{"featurecla":"Lake","scalerank":3,"name":"Hongze Hu","name_abb":"Hongze Hu","name_alt":null,"note":null,"delta":null,"dam_name":null,"year":-99,"admin":null,"min_zoom":3,"min_label":4,"label":"Hongze Hu","wikidataid":"Q31845950","name_ar":"بحيرة هونغز","name_bn":"হংজে হু","name_de":"Hongze Hu","name_en":"Hongze Lake","name_es":"Hongze Hu","name_fr":"Lac Hongze","name_el":"Χονγκζέ Χου","name_hi":"होंग्ज़े हु","name_hu":"Hongze Hu","name_id":"Danau Hongze","name_it":"Lago Hongze","name_ja":"洪沢湖","name_ko":"홍제 후","name_nl":"Hongze Lake","name_pl":"Hongze Hu","name_pt":"Lago Hongze","name_ru":"озеро Хунцзэху","name_sv":"Hongze Hu","name_tr":"Hongze Hu","name_vi":"Hồ Hồng Trạch","name_zh":"洪泽湖","ne_id":1159113359,"name_fa":"هونگز هو","name_he":"הונגזה","name_uk":"Хонжху","name_ur":"ہونگزی ہو","name_zht":"宏澤湖"},"bbox":[117.757282,32.860276,118.88087,33.658297],"geometry":{"type":"Polygon","coordinates":[[[118.668634,33.180838],[118.652149,33.190552],[118.614176,33.172596],[118.603579,33.177895],[118.593276,33.185548],[118.578558,33.183782],[118.573848,33.1776],[118.558247,33.152874],[118.55913,33.142571],[118.564429,33.127558],[118.565312,33.118727],[118.562662,33.10813],[118.556775,33.101949],[118.549416,33.09665],[118.544412,33.087525],[118.545001,33.078399],[118.548827,33.069274],[118.550299,33.058971],[118.544412,33.046608],[118.52469,33.056617],[118.513798,33.044842],[118.499963,33.009224],[118.481124,32.98538],[118.469643,32.979493],[118.426078,32.975666],[118.409593,32.970957],[118.333647,32.937988],[118.319223,32.93681],[118.323344,32.953],[118.315397,32.955944],[118.294791,32.950351],[118.291259,32.947113],[118.290376,32.940048],[118.288315,32.932984],[118.280956,32.93004],[118.27448,32.931806],[118.270065,32.93475],[118.266238,32.936516],[118.260645,32.933278],[118.255935,32.922386],[118.253286,32.89089],[118.250048,32.882059],[118.237979,32.879409],[118.229442,32.887063],[118.224732,32.899132],[118.222966,32.909434],[118.206188,32.900898],[118.190881,32.871167],[118.174691,32.861747],[118.173513,32.877643],[118.168803,32.887652],[118.16321,32.895894],[118.160855,32.906196],[118.167626,32.917971],[118.180872,32.92533],[118.191175,32.934161],[118.18882,32.950351],[118.200006,32.949468],[118.210603,32.950057],[118.220611,32.952706],[118.229148,32.95771],[118.204716,32.971545],[118.150847,33.022765],[118.134951,33.029535],[118.129064,33.017172],[118.126709,32.985086],[118.116112,32.97184],[118.104926,32.968602],[118.093446,32.967424],[118.081966,32.960948],[118.05459,32.926508],[118.041638,32.917382],[118.014851,32.904725],[118.003076,32.895894],[117.992774,32.871756],[117.985709,32.860276],[117.982765,32.864985],[117.98041,32.877054],[117.976584,32.886768],[117.9757,32.895305],[117.982765,32.903253],[117.975406,32.895894],[117.990419,32.91856],[118.051058,32.970957],[118.069603,32.993623],[118.083732,33.017172],[118.100216,33.0366],[118.126709,33.046608],[118.17263,33.034245],[118.242689,32.972428],[118.291259,32.970957],[118.291259,32.977727],[118.255052,32.988618],[118.230914,33.026297],[118.21649,33.073984],[118.205304,33.139922],[118.198534,33.15464],[118.18411,33.16141],[118.157617,33.163176],[118.135246,33.16141],[118.11729,33.156112],[118.085204,33.142276],[118.062243,33.1358],[118.042521,33.134329],[117.923598,33.140805],[117.907408,33.136095],[117.902992,33.121082],[117.907408,33.050435],[117.896811,33.038072],[117.871496,33.028063],[117.84412,33.021293],[117.826163,33.019232],[117.807324,33.023648],[117.78613,33.033656],[117.767585,33.046608],[117.757282,33.060149],[117.837644,33.045431],[117.877088,33.050435],[117.893867,33.087525],[117.89004,33.104598],[117.882093,33.125792],[117.877972,33.147575],[117.884153,33.166709],[117.902109,33.184076],[117.92036,33.193201],[117.940671,33.196734],[117.965692,33.197323],[117.988358,33.195262],[118.031041,33.185254],[118.051058,33.183782],[118.071369,33.190847],[118.100216,33.218222],[118.116406,33.22411],[118.154379,33.227936],[118.173219,33.226759],[118.195002,33.217928],[118.210603,33.206154],[118.21914,33.194379],[118.236507,33.163176],[118.228559,33.11755],[118.237685,33.064859],[118.260056,33.018349],[118.291259,32.991268],[118.315691,32.983909],[118.343067,32.979493],[118.369854,32.979199],[118.394286,32.985086],[118.415186,33.000099],[118.43903,33.039838],[118.456397,33.060149],[118.43432,33.044548],[118.403117,33.031301],[118.368971,33.025708],[118.338946,33.032479],[118.356902,33.045431],[118.382806,33.058971],[118.410182,33.069569],[118.456986,33.081343],[118.472293,33.095767],[118.469643,33.10607],[118.442562,33.10136],[118.485245,33.137567],[118.490543,33.149636],[118.48289,33.16612],[118.467583,33.171713],[118.43167,33.170241],[118.427255,33.167886],[118.421073,33.162882],[118.413714,33.158172],[118.404883,33.155817],[118.393697,33.1567],[118.313925,33.178778],[118.287138,33.195262],[118.248576,33.201149],[118.23268,33.20792],[118.222378,33.224404],[118.223555,33.242655],[118.228265,33.2612],[118.229148,33.280039],[118.225321,33.288281],[118.213252,33.304765],[118.209131,33.313596],[118.207954,33.322722],[118.209131,33.352158],[118.205599,33.372469],[118.199123,33.389248],[118.197945,33.405144],[118.209131,33.423394],[118.210014,33.394547],[118.231208,33.348331],[118.241511,33.291225],[118.255052,33.269147],[118.276541,33.253252],[118.3048,33.238534],[118.320401,33.265615],[118.330704,33.275918],[118.36014,33.285337],[118.380451,33.308298],[118.397819,33.313596],[118.409004,33.327432],[118.396641,33.389542],[118.411654,33.403377],[118.426078,33.401317],[118.436086,33.396901],[118.445506,33.394252],[118.456397,33.396607],[118.4667,33.407793],[118.470527,33.422217],[118.472293,33.435758],[118.476708,33.444588],[118.488777,33.445766],[118.494664,33.433991],[118.496725,33.403377],[118.492604,33.390425],[118.487305,33.380123],[118.489955,33.373058],[118.510266,33.368937],[118.518214,33.385127],[118.537347,33.391603],[118.556775,33.387776],[118.575026,33.357751],[118.595926,33.350981],[118.618886,33.353924],[118.633899,33.368937],[118.615354,33.370409],[118.603873,33.380417],[118.595337,33.393369],[118.585917,33.403377],[118.579736,33.406027],[118.542057,33.412503],[118.539996,33.419273],[118.542351,33.427515],[118.54088,33.433991],[118.518214,33.458129],[118.496725,33.48786],[118.479652,33.520829],[118.469938,33.553798],[118.461696,33.618852],[118.46199,33.630332],[118.469055,33.639457],[118.548239,33.650055],[118.558541,33.652704],[118.562074,33.657414],[118.564723,33.658297],[118.572377,33.650055],[118.575026,33.64299],[118.575026,33.62886],[118.578558,33.622679],[118.56384,33.606783],[118.558247,33.602073],[118.576792,33.603545],[118.583268,33.596186],[118.582385,33.583234],[118.578558,33.567338],[118.606817,33.577935],[118.615648,33.563217],[118.612999,33.537019],[118.606523,33.512881],[118.622124,33.507877],[118.619475,33.49463],[118.610055,33.474908],[118.606523,33.451359],[118.613293,33.451359],[118.618003,33.474025],[118.633016,33.477557],[118.668045,33.4649],[118.781669,33.44606],[118.793738,33.43929],[118.811989,33.409853],[118.819937,33.399551],[118.82759,33.393369],[118.845841,33.382478],[118.867035,33.373352],[118.876749,33.367465],[118.88087,33.358928],[118.874983,33.345976],[118.861442,33.328609],[118.846135,33.313302],[118.836127,33.306826],[118.830828,33.296523],[118.821114,33.249131],[118.815816,33.235001],[118.78844,33.214984],[118.784613,33.20792],[118.78373,33.199383],[118.778137,33.174362],[118.774605,33.166709],[118.75812,33.148458],[118.744285,33.129619],[118.738104,33.109602],[118.743696,33.087525],[118.72368,33.083992],[118.701014,33.084581],[118.685707,33.079871],[118.688356,33.060149],[118.668045,33.076633],[118.660686,33.105775],[118.669222,33.132562],[118.695715,33.142276],[118.695715,33.149636],[118.668634,33.180838]]]}},{"type":"Feature","properties":{"featurecla":"Lake","scalerank":3,"name":"Lake Khanka","name_abb":"L. Khanka","name_alt":"Xingkai Hu,  Ozero Khanka","note":null,"delta":null,"dam_name":null,"year":-99,"admin":"admin-0 more","min_zoom":3,"min_label":4,"label":"Lake Khanka","wikidataid":"Q201843","name_ar":"بحيرة خانكا","name_bn":"লেক খাংকা","name_de":"Chankasee","name_en":"Khanka","name_es":"Janka","name_fr":"Khanka","name_el":"Λίμνη Χάνκα","name_hi":"खानका झील","name_hu":"Hanka-tó","name_id":"Khanka","name_it":"Chanka","name_ja":"ハンカ湖","name_ko":"한카호","name_nl":"Chankameer","name_pl":"Chanka","name_pt":"Khanka","name_ru":"Ханка","name_sv":"Chanka","name_tr":"Khanka","name_vi":"Khanka","name_zh":"兴凯湖","ne_id":1159113423,"name_fa":"دریاچه خانکا","name_he":"אגם חאנקה","name_uk":"Ханка","name_ur":"جھیل کھانکا","name_zht":"興凱湖"},"bbox":[131.983017,44.527987,132.838145,45.337194],"geometry":{"type":"Polygon","coordinates":[[[132.820483,45.148212],[132.836085,45.10759],[132.838145,45.066967],[132.819012,45.024579],[132.742477,44.924495],[132.709214,44.895059],[132.667414,44.869743],[132.648575,44.854731],[132.640921,44.836775],[132.638566,44.827061],[132.629441,44.806455],[132.627086,44.795564],[132.629147,44.785261],[132.638566,44.7623],[132.640921,44.751703],[132.631207,44.710492],[132.60442,44.683411],[132.491384,44.626304],[132.475783,44.620417],[132.429862,44.610703],[132.418382,44.603933],[132.410434,44.591569],[132.401603,44.566254],[132.394244,44.552419],[132.385413,44.54241],[132.370695,44.532108],[132.353622,44.527987],[132.320653,44.54241],[132.282386,44.548298],[132.260014,44.560661],[132.242647,44.567137],[132.236171,44.573319],[132.232344,44.585093],[132.235287,44.590392],[132.24088,44.592158],[132.24353,44.593335],[132.244707,44.602755],[132.247356,44.606582],[132.247356,44.609525],[132.239997,44.617179],[132.231755,44.622183],[132.224102,44.625127],[132.218509,44.629248],[132.216448,44.638079],[132.224985,44.643672],[132.284446,44.634252],[132.232049,44.663688],[132.107533,44.693714],[132.065439,44.72992],[132.044245,44.775841],[132.039241,44.795858],[132.037475,44.816758],[132.104001,44.859735],[132.120191,44.867683],[132.1093,44.905656],[132.114598,44.949222],[132.114304,44.991316],[132.086045,45.024579],[132.061613,45.031644],[132.034531,45.035765],[132.012454,45.045479],[132.003329,45.069322],[132.012454,45.090516],[132.030116,45.101702],[132.041302,45.112888],[132.030704,45.134377],[132.022757,45.14203],[132.015397,45.147034],[132.008921,45.152627],[132.003329,45.161753],[132.001562,45.171761],[132.000091,45.202964],[131.983017,45.2115],[131.992731,45.230928],[132.013926,45.251828],[132.030704,45.26478],[132.109005,45.308935],[132.151099,45.32483],[132.195843,45.333956],[132.420148,45.337194],[132.50934,45.315116],[132.57204,45.307757],[132.722166,45.250356],[132.754251,45.232106],[132.781039,45.207968],[132.7987,45.189717],[132.820483,45.148212]]]}},{"type":"Feature","properties":{"featurecla":"Lake","scalerank":4,"name":"Hulun Nuur","name_abb":"Hulun Nuur","name_alt":"Hulun Lake, Dalai Lake","note":null,"delta":null,"dam_name":null,"year":-99,"admin":null,"min_zoom":4,"min_label":5,"label":"Hulun Nuur","wikidataid":"Q537374","name_ar":"بحيرة دالاي","name_bn":"হুলুন নূর","name_de":"Hulun","name_en":"Hulun","name_es":"Hulun","name_fr":"Hulun","name_el":"Χουλούν Νουρ","name_hi":"हुलुन नुउर","name_hu":"Hulun Nuur","name_id":"Hulun","name_it":"Hulun","name_ja":"フルン湖","name_ko":"후룬호","name_nl":"Hulun","name_pl":"Hulun Nur","name_pt":"Hulun","name_ru":"Далайнор","name_sv":"Hulunsjön","name_tr":"Hulun","name_vi":"Hô Luân","name_zh":"呼倫湖","ne_id":1159113513,"name_fa":"دریاچه هولون","name_he":"אגם חולון","name_uk":"Гулунь-Нур","name_ur":"ہولون جھیل","name_zht":"呼倫湖"},"bbox":[116.97604,48.543702,118.058417,49.377636],"geometry":{"type":"Polygon","coordinates":[[[117.312498,48.619942],[117.291893,48.597865],[117.266872,48.58874],[117.241851,48.583147],[117.215947,48.572844],[117.189159,48.566074],[117.160901,48.571667],[117.136763,48.566368],[117.102028,48.550178],[117.069353,48.543702],[117.051103,48.568134],[117.091136,48.569017],[117.107621,48.574905],[117.119984,48.58874],[117.113214,48.599042],[117.114391,48.607285],[117.12175,48.613172],[117.133525,48.615821],[117.126166,48.629656],[117.153541,48.629068],[117.169731,48.641431],[117.170615,48.657032],[117.153247,48.664391],[117.147949,48.662919],[117.138823,48.657327],[117.133525,48.657621],[117.11233,48.670573],[117.099378,48.675871],[117.089664,48.678521],[117.078479,48.677932],[117.084955,48.690884],[117.106738,48.70884],[117.11233,48.718849],[117.109092,48.731801],[117.098495,48.743575],[117.08466,48.753289],[117.071414,48.76006],[117.061994,48.76212],[117.04551,48.763003],[117.036679,48.767419],[117.032852,48.772717],[117.035207,48.782431],[117.030497,48.788024],[117.018428,48.793323],[116.99223,48.796855],[116.97604,48.800976],[116.97604,48.807747],[116.995174,48.812162],[116.993113,48.822465],[116.97604,48.841893],[116.977512,48.855728],[116.984576,48.867208],[116.993996,48.874862],[117.002533,48.876628],[117.005182,48.895467],[117.019017,48.899294],[117.038445,48.896939],[117.057873,48.896645],[117.107032,48.920194],[117.126166,48.923726],[117.122928,48.927847],[117.121161,48.931085],[117.118512,48.934323],[117.11233,48.937561],[117.118512,48.946686],[117.126166,48.951691],[117.146771,48.959344],[117.263928,49.020572],[117.286888,49.027637],[117.308966,49.038234],[117.325744,49.054129],[117.33222,49.078562],[117.339285,49.096223],[117.557409,49.303161],[117.565062,49.318468],[117.570361,49.325533],[117.583313,49.328477],[117.624818,49.329949],[117.63571,49.332598],[117.644835,49.337013],[117.653666,49.342901],[117.683102,49.368805],[117.701059,49.377636],[117.709007,49.36645],[117.70518,49.35232],[117.699587,49.34084],[117.702531,49.331126],[117.722547,49.322295],[117.722547,49.314936],[117.706652,49.310815],[117.692522,49.295508],[117.681631,49.280201],[117.674566,49.266366],[117.667796,49.243406],[117.666912,49.221917],[117.678098,49.212497],[117.70047,49.205433],[117.710184,49.188654],[117.71666,49.170403],[117.729612,49.157157],[117.726668,49.165693],[117.725491,49.16746],[117.739032,49.183944],[117.764347,49.183355],[117.787896,49.172464],[117.798493,49.154213],[117.796138,49.14862],[117.786424,49.130664],[117.784069,49.119478],[117.79084,49.11418],[117.831756,49.102699],[117.879149,49.10005],[118.010435,49.130075],[118.033396,49.130958],[118.048114,49.126543],[118.056062,49.112708],[118.058417,49.085332],[118.053413,49.067964],[118.041638,49.050303],[118.026037,49.035879],[118.010435,49.027637],[117.983354,49.023516],[117.904464,49.033818],[117.856483,49.024104],[117.836761,49.024987],[117.826163,49.041177],[117.829696,49.04],[117.836172,49.041766],[117.842942,49.045593],[117.84618,49.051186],[117.844708,49.060017],[117.840587,49.060605],[117.834111,49.059134],[117.826163,49.061783],[117.787896,49.092102],[117.769646,49.091514],[117.746391,49.070908],[117.709007,49.027637],[117.727551,49.026754],[117.735205,49.013507],[117.743741,48.972296],[117.68428,48.975534],[117.667207,48.972296],[117.653077,48.962288],[117.640125,48.947275],[117.61952,48.917544],[117.599503,48.893995],[117.509428,48.819816],[117.457914,48.788319],[117.304256,48.725913],[117.304256,48.718849],[117.333398,48.722381],[117.346939,48.715611],[117.348116,48.698243],[117.338991,48.670573],[117.328394,48.647024],[117.312498,48.619942]]]}},{"type":"Feature","properties":{"featurecla":"Lake","scalerank":4,"name":"Tai Hu","name_abb":"Tai Hu","name_alt":null,"note":null,"delta":null,"dam_name":null,"year":-99,"admin":null,"min_zoom":4,"min_label":5,"label":"Tai Hu","wikidataid":"Q140712","name_ar":"بحيرة تاي","name_bn":"তাই হু","name_de":"Tai Hu","name_en":"Tai","name_es":"Taihu","name_fr":"Tai","name_el":"Τάι Χου","name_hi":"ताइहू झील","name_hu":"Taj-tó","name_id":"Taihu","name_it":"Tai Hu","name_ja":"太湖","name_ko":"타이 호","name_nl":"Taihu","name_pl":"Tai Hu","name_pt":"Taihu","name_ru":"Тайху","name_sv":"Tai Hu","name_tr":"Tai","name_vi":"Thái","name_zh":"太湖","ne_id":1159113611,"name_fa":"رود تای","name_he":"טאיהו","name_uk":"Тайху","name_ur":"تائی ہو","name_zht":"太湖"},"bbox":[119.898193,30.920416,120.601428,31.54594],"geometry":{"type":"Polygon","coordinates":[[[120.562867,31.173275],[120.576996,31.172686],[120.601428,31.086437],[120.589654,31.077018],[120.542556,31.056412],[120.520773,31.039634],[120.389192,30.959861],[120.304121,30.93013],[120.213162,30.920416],[120.128385,30.943082],[120.050968,30.994596],[120.025358,31.022266],[119.96207,31.067598],[119.942642,31.086437],[119.93852,31.098506],[119.936754,31.112636],[119.935871,31.138246],[119.93175,31.15002],[119.912911,31.172097],[119.90879,31.186521],[119.905257,31.211542],[119.89937,31.230381],[119.898193,31.248043],[119.90879,31.271298],[119.917032,31.290726],[119.963836,31.354014],[119.984441,31.396992],[119.998571,31.415831],[120.018587,31.429077],[120.009168,31.447622],[120.014466,31.460869],[120.027713,31.468816],[120.042431,31.471466],[120.071573,31.468228],[120.09159,31.468816],[120.100421,31.474409],[120.105425,31.490599],[120.117494,31.496781],[120.133389,31.499725],[120.148991,31.504729],[120.160471,31.515915],[120.169891,31.52975],[120.182548,31.54123],[120.203448,31.54594],[120.200505,31.538875],[120.196089,31.531516],[120.21169,31.535637],[120.229058,31.538286],[120.240538,31.53446],[120.237594,31.518564],[120.278511,31.518564],[120.278511,31.512382],[120.268503,31.506201],[120.263793,31.496487],[120.26291,31.484712],[120.264382,31.471466],[120.257611,31.471466],[120.251724,31.487361],[120.243776,31.502374],[120.23259,31.51356],[120.216695,31.518564],[120.225231,31.499725],[120.224054,31.485595],[120.219344,31.473232],[120.207864,31.428489],[120.208747,31.412887],[120.224054,31.40229],[120.251135,31.406411],[120.285281,31.42319],[120.317367,31.44409],[120.336795,31.460574],[120.34857,31.461457],[120.36947,31.457336],[120.390075,31.450566],[120.402144,31.443501],[120.404499,31.430843],[120.391547,31.402879],[120.38772,31.384628],[120.380067,31.369027],[120.362405,31.364317],[120.342094,31.364023],[120.326492,31.361374],[120.31619,31.350776],[120.295584,31.315453],[120.292346,31.306327],[120.331497,31.330465],[120.34386,31.333409],[120.357401,31.329582],[120.361227,31.321634],[120.35534,31.314275],[120.340033,31.313098],[120.345037,31.299557],[120.336206,31.29102],[120.32973,31.281601],[120.340033,31.265411],[120.351808,31.259229],[120.364465,31.257463],[120.376829,31.254519],[120.38772,31.244217],[120.353868,31.223611],[120.380361,31.217429],[120.446887,31.223317],[120.470436,31.216841],[120.474558,31.192703],[120.427754,31.143838],[120.425693,31.124705],[120.434818,31.109103],[120.421278,31.107337],[120.403027,31.111458],[120.398612,31.114402],[120.384482,31.109987],[120.370058,31.090853],[120.357695,31.086437],[120.351808,31.081728],[120.330908,31.057884],[120.326492,31.049053],[120.331791,31.038456],[120.344154,31.027565],[120.367409,31.011375],[120.37624,31.016379],[120.385071,31.016084],[120.393607,31.011963],[120.402144,31.004604],[120.414802,31.029625],[120.444238,31.069659],[120.449831,31.097035],[120.462489,31.111458],[120.491336,31.116168],[120.523716,31.113519],[120.546088,31.107043],[120.546971,31.127648],[120.552564,31.153847],[120.562867,31.173275]]]}},{"type":"Feature","properties":{"featurecla":"Lake","scalerank":4,"name":"Nam Co","name_abb":"Nam Co","name_alt":null,"note":null,"delta":null,"dam_name":null,"year":-99,"admin":null,"min_zoom":4,"min_label":5,"label":"Nam Co","wikidataid":"Q651294","name_ar":"نامتسو","name_bn":"নাম কো","name_de":"Nam Co","name_en":"Namtso","name_es":"Nam","name_fr":"Namtso","name_el":"Ναμ Κο","name_hi":"नम त्सो","name_hu":"Nam Co","name_id":"Nam Co","name_it":"Namtso","name_ja":"ナムツォ","name_ko":"남초호","name_nl":"Namtso","name_pl":"Nam Co","name_pt":"Lago Nam","name_ru":"Намцо","name_sv":"Namtso","name_tr":"Namtso","name_vi":"Namtso","name_zh":"纳木错","ne_id":1159113637,"name_fa":"نامتسو","name_he":"נאם דין","name_uk":"Намцо","name_ur":"نامتسو","name_zht":"納木錯"},"bbox":[90.271915,30.50448,91.03108,30.936312],"geometry":{"type":"Polygon","coordinates":[[[90.39437,30.535093],[90.384068,30.523319],[90.361107,30.510956],[90.337558,30.50448],[90.325489,30.51125],[90.325489,30.515665],[90.326667,30.518609],[90.33226,30.524202],[90.337558,30.539803],[90.324606,30.552167],[90.306944,30.565119],[90.298113,30.583075],[90.301646,30.591906],[90.315775,30.610451],[90.315186,30.614277],[90.284867,30.623403],[90.277508,30.627818],[90.277802,30.646363],[90.298702,30.695522],[90.304295,30.713478],[90.301057,30.736438],[90.277508,30.792368],[90.271915,30.835639],[90.284867,30.869785],[90.314598,30.887447],[90.359635,30.88156],[90.38083,30.875084],[90.400552,30.874201],[90.417331,30.881266],[90.428222,30.883326],[90.438525,30.878028],[90.479736,30.829163],[90.496809,30.819449],[90.521241,30.813856],[90.582763,30.812679],[90.595127,30.817094],[90.611611,30.835934],[90.623386,30.840055],[90.68167,30.840055],[90.658121,30.865664],[90.67019,30.888036],[90.705513,30.912174],[90.711401,30.90923],[90.718465,30.908347],[90.733184,30.908936],[90.743486,30.90717],[90.746724,30.902754],[90.747313,30.898044],[90.749962,30.894806],[90.762914,30.890685],[90.77881,30.888036],[90.792056,30.889802],[90.797944,30.898339],[90.80442,30.901577],[90.832679,30.880383],[90.839449,30.885092],[90.845336,30.887447],[90.875361,30.863309],[90.887136,30.86066],[90.889491,30.871257],[90.88066,30.904815],[90.884192,30.918944],[90.894789,30.922477],[90.905975,30.913646],[90.917455,30.901282],[90.92923,30.894806],[90.933057,30.922182],[90.938944,30.932191],[90.952779,30.936312],[90.967792,30.936017],[90.984276,30.933368],[90.998111,30.926303],[91.003704,30.912174],[91.007531,30.906581],[91.025487,30.88627],[91.03108,30.874201],[91.030491,30.862132],[91.007531,30.800315],[90.995168,30.787952],[90.977506,30.784714],[90.846219,30.784714],[90.864176,30.714361],[90.798827,30.657843],[90.633394,30.593083],[90.590711,30.582486],[90.555388,30.579248],[90.535076,30.565119],[90.523008,30.558643],[90.512116,30.567768],[90.498575,30.566296],[90.435287,30.545691],[90.410855,30.544807],[90.399375,30.542158],[90.39437,30.535093]]]}},{"type":"Feature","properties":{"featurecla":"Lake","scalerank":4,"name":"Bosten Hu","name_abb":"Bosten Hu","name_alt":null,"note":null,"delta":null,"dam_name":null,"year":-99,"admin":null,"min_zoom":4,"min_label":5,"label":"Bosten Hu","wikidataid":"Q611206","name_ar":"بحيرة بوستن","name_bn":"বোস্টেন হু","name_de":"Bosten","name_en":"Bosten","name_es":"Bosten","name_fr":"Bosten","name_el":"Μπόστεν Χου","name_hi":"बोस्तेन झील","name_hu":"Boszten-tó","name_id":"Bosten","name_it":"Bosten","name_ja":"ボステン湖","name_ko":"보스텅 호수","name_nl":"Bosten","name_pl":"Bosten Hu","name_pt":"Lago Bosten","name_ru":"Баграшкёль","name_sv":"Bosten","name_tr":"Bosten","name_vi":"Bosten","name_zh":"博斯腾湖","ne_id":1159113927,"name_fa":"بوستن هو","name_he":"בוסטן","name_uk":"Баграшкьоль","name_ur":"بوسٹن ہو","name_zht":"博斯騰湖"},"bbox":[86.680084,41.82543,87.433656,42.133629],"geometry":{"type":"Polygon","coordinates":[[[87.433656,41.848979],[87.416877,41.839265],[87.378316,41.844563],[87.310023,41.866052],[87.312672,41.870173],[87.316499,41.872822],[87.307079,41.884008],[87.296482,41.893428],[87.28147,41.884302],[87.24909,41.892839],[87.212294,41.906674],[87.133993,41.921981],[87.049511,41.911973],[86.914692,41.876355],[86.874953,41.872822],[86.844339,41.865757],[86.786644,41.834555],[86.753381,41.82543],[86.737485,41.833966],[86.698334,41.833377],[86.680084,41.845446],[86.725416,41.85516],[86.734247,41.858987],[86.735424,41.864286],[86.734836,41.871056],[86.733069,41.876943],[86.730715,41.879593],[86.721589,41.882536],[86.721295,41.889601],[86.727182,41.904025],[86.73042,41.909029],[86.745138,41.92463],[86.748376,41.931106],[86.750143,41.945824],[86.754852,41.960248],[86.763095,41.972612],[86.775164,41.98262],[86.802834,41.991451],[86.827266,41.993217],[86.844339,42.002637],[86.850815,42.034134],[86.845811,42.03796],[86.836097,42.048852],[86.829621,42.060038],[86.833742,42.065336],[86.837569,42.069163],[86.830504,42.077994],[86.818729,42.087414],[86.809898,42.092418],[86.81402,42.10066],[86.814314,42.106547],[86.810782,42.112435],[86.803128,42.119794],[86.816669,42.133629],[86.834919,42.121265],[86.857585,42.115378],[86.93412,42.11008],[87.073943,42.060921],[87.169906,42.047969],[87.187273,42.051501],[87.196399,42.04738],[87.253211,42.035017],[87.311789,42.032073],[87.337399,42.023537],[87.354472,42.002931],[87.357416,41.974966],[87.351234,41.913739],[87.364186,41.91786],[87.377433,41.91315],[87.38803,41.902847],[87.391856,41.89019],[87.398332,41.881359],[87.42718,41.858693],[87.433656,41.848979]]]}},{"type":"Feature","properties":{"featurecla":"Lake","scalerank":4,"name":"Poyang Hu","name_abb":"Poyang Hu","name_alt":null,"note":null,"delta":null,"dam_name":null,"year":-99,"admin":null,"min_zoom":4,"min_label":5,"label":"Poyang Hu","wikidataid":"Q207690","name_ar":"بحيرة بويانغ","name_bn":"পোয়াং হু","name_de":"Poyang","name_en":"Poyang","name_es":"Poyang","name_fr":"Poyang","name_el":"Πουανγκ Χου","name_hi":"पोयांग झील","name_hu":"Poyang Hu","name_id":"Poyang","name_it":"Poyang","name_ja":"鄱陽湖","name_ko":"포양호","name_nl":"Poyangmeer","name_pl":"Poyang Hu","name_pt":"Poyang","name_ru":"Поянху","name_sv":"Poyangsjön","name_tr":"Poyang","name_vi":"Bà Dương","name_zh":"鄱阳湖","ne_id":1159114015,"name_fa":"دریاچه پویانگ","name_he":"אגם פויאנג","name_uk":"Поянху","name_ur":"پویانگ ہو","name_zht":"鄱陽湖"},"bbox":[115.907498,28.776856,116.715233,29.750907],"geometry":{"type":"Polygon","coordinates":[[[116.677555,29.173365],[116.688446,29.168066],[116.715233,29.137158],[116.715233,29.097125],[116.70758,29.082995],[116.688446,29.07858],[116.690801,29.091826],[116.689918,29.112137],[116.684325,29.127739],[116.656655,29.12715],[116.645763,29.112726],[116.637227,29.091826],[116.6334,29.072398],[116.625747,29.074164],[116.622803,29.075636],[116.618976,29.07858],[116.623686,29.086233],[116.62663,29.094475],[116.627513,29.103601],[116.626335,29.113315],[116.623686,29.120968],[116.619271,29.130682],[116.615444,29.135686],[116.607202,29.117436],[116.593072,29.12244],[116.576588,29.13392],[116.564519,29.140691],[116.556865,29.137158],[116.543325,29.12244],[116.537143,29.119496],[116.529784,29.123617],[116.523308,29.132154],[116.518598,29.142457],[116.516537,29.151288],[116.506823,29.160707],[116.48769,29.159824],[116.47621,29.152171],[116.488573,29.140691],[116.483274,29.124501],[116.492694,29.112137],[116.508295,29.103601],[116.523308,29.099774],[116.516537,29.085939],[116.53155,29.079757],[116.537143,29.07858],[116.537143,29.072398],[116.512416,29.069749],[116.485629,29.0462],[116.461197,29.051204],[116.459725,29.036486],[116.461197,29.024417],[116.468556,29.017058],[116.482391,29.017058],[116.480036,28.998807],[116.48975,28.983794],[116.504174,28.970254],[116.516537,28.95583],[116.52213,28.940523],[116.522425,28.924627],[116.518009,28.909026],[116.509178,28.894308],[116.52478,28.890481],[116.535377,28.895485],[116.544796,28.898135],[116.558043,28.886654],[116.550684,28.880473],[116.558043,28.873702],[116.541264,28.866049],[116.533905,28.861045],[116.530961,28.856335],[116.533022,28.845738],[116.541264,28.830725],[116.543325,28.825427],[116.54097,28.812769],[116.535082,28.796579],[116.526546,28.782449],[116.516537,28.776856],[116.523308,28.790692],[116.518892,28.791575],[116.515654,28.792752],[116.513005,28.794518],[116.509178,28.798051],[116.481508,28.79128],[116.472088,28.790692],[116.46208,28.794224],[116.456487,28.803055],[116.453249,28.814535],[116.448245,28.825427],[116.438531,28.836024],[116.429994,28.842794],[116.423224,28.850153],[116.420869,28.862811],[116.424107,28.874291],[116.432349,28.882828],[116.454721,28.894308],[116.426168,28.899606],[116.404973,28.874291],[116.388489,28.840145],[116.372593,28.818362],[116.365823,28.825427],[116.371416,28.83308],[116.39261,28.877823],[116.419103,28.917563],[116.424696,28.929926],[116.427934,28.943172],[116.427345,28.95583],[116.420575,28.966133],[116.413804,28.961423],[116.4088,28.948765],[116.40674,28.935224],[116.397614,28.940523],[116.393199,28.938462],[116.386134,28.921389],[116.3879,28.919623],[116.39261,28.906082],[116.393199,28.900489],[116.39055,28.898723],[116.381424,28.894013],[116.379658,28.890481],[116.373182,28.87017],[116.358464,28.850153],[116.342274,28.841322],[116.331088,28.853391],[116.333737,28.863988],[116.354637,28.883122],[116.359053,28.894308],[116.353754,28.904611],[116.344334,28.907554],[116.335209,28.908143],[116.331088,28.911381],[116.333149,28.925216],[116.338742,28.941112],[116.359053,28.976141],[116.344334,28.980851],[116.329911,28.982911],[116.2678,28.980262],[116.260735,28.985855],[116.269566,29.004106],[116.264267,29.007932],[116.259558,29.012642],[116.256614,29.019118],[116.255142,29.027655],[116.252198,29.031481],[116.206572,29.033248],[116.19833,29.037957],[116.194503,29.051204],[116.187733,29.051204],[116.174192,29.038841],[116.155647,29.047083],[116.142989,29.066216],[116.145933,29.085939],[116.131509,29.082701],[116.115908,29.077108],[116.10325,29.078285],[116.093536,29.114492],[116.08235,29.125678],[116.057329,29.140691],[116.042317,29.165417],[116.035841,29.181313],[116.040256,29.188378],[116.074991,29.183668],[116.084117,29.186906],[116.077935,29.202213],[116.140046,29.197208],[116.158885,29.203096],[116.14505,29.212515],[116.123856,29.220758],[116.102661,29.223996],[116.088238,29.219874],[116.077641,29.223996],[116.005816,29.239891],[115.997573,29.254315],[115.98992,29.272271],[115.980795,29.280219],[115.967843,29.264029],[115.967548,29.249017],[115.974907,29.232827],[115.980795,29.215459],[115.975202,29.195737],[115.929281,29.203979],[115.907498,29.216931],[115.922216,29.250194],[115.924277,29.262852],[115.927809,29.273449],[115.97844,29.294643],[115.984916,29.299353],[116.009642,29.311127],[116.01759,29.319075],[116.024066,29.327906],[116.028187,29.338798],[116.029954,29.352927],[116.02701,29.361169],[116.00405,29.410328],[115.998751,29.417393],[115.990509,29.42122],[115.975202,29.42122],[115.975202,29.428579],[115.991392,29.433583],[116.001695,29.440059],[116.01082,29.447712],[116.023183,29.455955],[116.046144,29.448007],[116.060862,29.463314],[116.070576,29.485391],[116.077935,29.49746],[116.077935,29.503642],[116.063217,29.509529],[116.070576,29.51836],[116.086471,29.528957],[116.098246,29.538376],[116.097069,29.544558],[116.092653,29.553683],[116.090298,29.56222],[116.112081,29.579587],[116.116497,29.593717],[116.12886,29.65936],[116.126211,29.66878],[116.116497,29.674667],[116.098246,29.681732],[116.100895,29.685853],[116.105605,29.695567],[116.092653,29.694389],[116.069398,29.688797],[116.060862,29.692035],[116.092947,29.724415],[116.102073,29.730302],[116.150054,29.727947],[116.173603,29.73354],[116.187733,29.750907],[116.229238,29.743843],[116.210399,29.735012],[116.193326,29.718527],[116.188027,29.702632],[116.204806,29.695567],[116.238658,29.708225],[116.256908,29.709696],[116.269566,29.695567],[116.247783,29.691151],[116.243073,29.683792],[116.244839,29.673784],[116.243073,29.661421],[116.232182,29.651412],[116.217758,29.670252],[116.204806,29.664953],[116.202451,29.650235],[116.205983,29.630807],[116.205689,29.613439],[116.190971,29.60608],[116.187733,29.598427],[116.195386,29.581059],[116.207161,29.562809],[116.215697,29.552212],[116.195681,29.556627],[116.186261,29.564869],[116.179491,29.574878],[116.167127,29.585769],[116.152115,29.554272],[116.145639,29.533667],[116.14976,29.524247],[116.157119,29.521303],[116.162417,29.514533],[116.166244,29.506585],[116.17066,29.500698],[116.168893,29.495694],[116.152115,29.477737],[116.145933,29.469495],[116.151232,29.460959],[116.152998,29.452422],[116.150937,29.443591],[116.145933,29.43476],[116.115614,29.443886],[116.08029,29.418276],[116.061745,29.383835],[116.081467,29.366468],[116.114142,29.367645],[116.150643,29.373533],[116.184789,29.387956],[116.208044,29.415038],[116.223056,29.380892],[116.225706,29.363819],[116.221879,29.346157],[116.214225,29.358226],[116.206572,29.356459],[116.198035,29.347923],[116.187733,29.339386],[116.145639,29.342036],[116.132981,29.339386],[116.120323,29.324962],[116.123561,29.312305],[116.145933,29.290816],[116.161829,29.27963],[116.166244,29.273743],[116.130626,29.264029],[116.126211,29.264029],[116.12415,29.24725],[116.140046,29.244012],[116.174192,29.250488],[116.181845,29.248722],[116.189205,29.244601],[116.196858,29.242246],[116.204806,29.246662],[116.217169,29.258436],[116.22394,29.262852],[116.229238,29.264029],[116.236008,29.258436],[116.246017,29.234593],[116.255142,29.223112],[116.266328,29.215753],[116.280752,29.210455],[116.296059,29.209572],[116.310483,29.216342],[116.306656,29.220758],[116.305478,29.22429],[116.305478,29.228705],[116.303712,29.236948],[116.316664,29.232238],[116.325495,29.236065],[116.331971,29.241657],[116.338447,29.243129],[116.346101,29.23577],[116.346395,29.228411],[116.347867,29.221641],[116.359053,29.216342],[116.366412,29.232827],[116.372299,29.238714],[116.379658,29.229294],[116.378775,29.221641],[116.369944,29.196325],[116.365823,29.188378],[116.338153,29.171304],[116.324023,29.156881],[116.324906,29.140691],[116.33933,29.139807],[116.364646,29.166889],[116.365823,29.147461],[116.372888,29.15011],[116.379658,29.15482],[116.393199,29.140691],[116.397909,29.152171],[116.39732,29.163357],[116.394671,29.175131],[116.393199,29.188378],[116.399381,29.188378],[116.407917,29.176603],[116.422047,29.176014],[116.434999,29.183962],[116.440886,29.198975],[116.442358,29.207806],[116.445596,29.215165],[116.447068,29.221346],[116.444713,29.226351],[116.438237,29.234593],[116.435587,29.244307],[116.43647,29.254609],[116.440886,29.264029],[116.437059,29.266973],[116.432055,29.273449],[116.427345,29.277864],[116.445596,29.280808],[116.463552,29.269622],[116.477093,29.249311],[116.488573,29.202507],[116.500053,29.204568],[116.50594,29.223112],[116.495638,29.250488],[116.510356,29.24519],[116.514477,29.231355],[116.516243,29.216636],[116.523308,29.208983],[116.536554,29.213987],[116.541853,29.229294],[116.541264,29.246073],[116.537143,29.257259],[116.543325,29.257259],[116.550389,29.251371],[116.555394,29.252255],[116.558337,29.259025],[116.558043,29.271094],[116.570406,29.248133],[116.588362,29.245484],[116.606613,29.24725],[116.618976,29.236948],[116.605435,29.236948],[116.618976,29.202213],[116.629573,29.232238],[116.630751,29.246367],[116.626335,29.264029],[116.641053,29.257847],[116.65636,29.249017],[116.665191,29.239303],[116.660776,29.229294],[116.688446,29.216342],[116.684031,29.212221],[116.678438,29.2081],[116.667546,29.202213],[116.65636,29.209277],[116.651356,29.207511],[116.648413,29.200741],[116.643703,29.192204],[116.618976,29.168066],[116.623686,29.150405],[116.638404,29.152465],[116.664014,29.168066],[116.67255,29.169833],[116.674611,29.172776],[116.677555,29.173365]]]}},{"type":"Feature","properties":{"featurecla":"Lake","scalerank":4,"name":"Siling Co","name_abb":"Siling Co","name_alt":null,"note":null,"delta":null,"dam_name":null,"year":-99,"admin":null,"min_zoom":4,"min_label":5,"label":"Siling Co","wikidataid":"Q1404973","name_ar":"بحيرة سيلنج","name_bn":"সাইলিং কো","name_de":"Serling Tsho","name_en":"Siling","name_es":"Siling","name_fr":"Siling","name_el":"Σίλινγκ Κο","name_hi":"सिलिंग को","name_hu":"Siling Co","name_id":"Siling Co","name_it":"Siling Co","name_ja":"色林錯","name_ko":"실링 코","name_nl":"Serling Tso","name_pl":"Jezioro Siling","name_pt":"Siling","name_ru":"Силинг-Цо","name_sv":"Siling Co","name_tr":"Siling Co","name_vi":"Siling","name_zh":"色林错","ne_id":1159114083,"name_fa":"سیلینگ کو","name_he":"אגם סילינג","name_uk":"Сілінгко","name_ur":"سائلنگ کو","name_zht":"色林错"},"bbox":[88.557244,31.559481,89.345257,31.936855],"geometry":{"type":"Polygon","coordinates":[[[89.338486,31.818521],[89.342607,31.816166],[89.345257,31.806452],[89.331127,31.783197],[89.296981,31.777899],[89.269899,31.792028],[89.276964,31.827058],[89.248411,31.80292],[89.241641,31.763475],[89.242524,31.717848],[89.235459,31.676049],[89.225156,31.661625],[89.188361,31.622474],[89.177469,31.614821],[89.158335,31.606579],[89.146267,31.588623],[89.137141,31.569783],[89.12625,31.559481],[89.107999,31.563896],[89.087688,31.578909],[89.070909,31.597454],[89.064139,31.611289],[89.051481,31.61541],[88.975241,31.600397],[88.960817,31.607756],[88.941095,31.622769],[88.925493,31.639548],[88.924316,31.652205],[88.945216,31.686057],[88.95964,31.702836],[88.980245,31.709901],[88.937857,31.735805],[88.915779,31.740809],[88.893702,31.7308],[88.87869,31.736688],[88.85985,31.737865],[88.840717,31.73551],[88.824527,31.7308],[88.811869,31.722558],[88.787142,31.70107],[88.780372,31.696654],[88.76271,31.698715],[88.734451,31.708134],[88.718555,31.710195],[88.683526,31.710784],[88.667925,31.71461],[88.653795,31.72403],[88.653795,31.717848],[88.648202,31.734333],[88.646731,31.756999],[88.648202,31.77731],[88.650263,31.786141],[88.618472,31.779665],[88.61229,31.779076],[88.601987,31.787024],[88.602576,31.793794],[88.60552,31.800859],[88.601693,31.809984],[88.584325,31.818521],[88.568724,31.816166],[88.558716,31.818521],[88.557244,31.840598],[88.561659,31.85826],[88.571373,31.869152],[88.585797,31.875922],[88.604931,31.881515],[88.638783,31.886225],[88.687353,31.887108],[88.730624,31.882692],[88.749464,31.870918],[88.745343,31.859732],[88.738572,31.848252],[88.7371,31.835594],[88.749464,31.819404],[88.76742,31.810868],[88.787142,31.80969],[88.806865,31.813517],[88.824527,31.819404],[88.805393,31.833239],[88.798328,31.849429],[88.80451,31.866502],[88.824527,31.881515],[88.831886,31.874156],[88.838362,31.881515],[88.845721,31.874156],[88.865149,31.883281],[88.927554,31.90212],[89.009682,31.936855],[89.029993,31.916839],[89.0662,31.91625],[89.136553,31.929496],[89.155392,31.924198],[89.178647,31.900943],[89.191304,31.895939],[89.205728,31.893584],[89.241641,31.88387],[89.269605,31.879454],[89.285795,31.873273],[89.299925,31.864736],[89.31111,31.855022],[89.325534,31.827058],[89.332893,31.819993],[89.338486,31.818521]]]}},{"type":"Feature","properties":{"featurecla":"Lake","scalerank":5,"name":"Ngoring Hu","name_abb":"Ngoring Hu","name_alt":null,"note":null,"delta":null,"dam_name":null,"year":-99,"admin":null,"min_zoom":4.7,"min_label":6,"label":"Ngoring Hu","wikidataid":"Q847864","name_ar":"بحيرة إنجورينغ","name_bn":"এনগোরিং হু","name_de":"Ngoring Hu","name_en":"Ngoring","name_es":"Eling","name_fr":"Lac Ngoring","name_el":"Νγκόρινγκ Χου","name_hi":"एनगोरिंग हू","name_hu":"Ngoring Hu","name_id":"Danau Ngoring","name_it":"Ngoring Hu","name_ja":"ゴレン湖","name_ko":"응고링 후","name_nl":"Ngoring Lake","name_pl":"Ngoring Hu","name_pt":"Lago Ngoring","name_ru":"Орин-Нур","name_sv":"Ngoring Hu","name_tr":"Ngoring Hu","name_vi":"Hồ Ngạc Lăng","name_zh":"鄂陵湖","ne_id":1159114305,"name_fa":"انگورینگ هو","name_he":"אגם נגורינג","name_uk":"Нгорінгху","name_ur":"اینگورنگ ہو","name_zht":"鄂陵湖"},"bbox":[97.545358,34.780707,97.901539,35.088612],"geometry":{"type":"Polygon","coordinates":[[[97.867981,34.871666],[97.900656,34.831632],[97.901539,34.821624],[97.883583,34.821329],[97.850025,34.8281],[97.85709,34.808377],[97.845315,34.806611],[97.808225,34.821624],[97.779672,34.829572],[97.769958,34.835459],[97.760833,34.849],[97.754945,34.817208],[97.734929,34.808377],[97.712263,34.818386],[97.698428,34.842229],[97.681649,34.820446],[97.678705,34.815148],[97.681649,34.808672],[97.69725,34.799841],[97.698428,34.794542],[97.688419,34.786006],[97.672523,34.781885],[97.65545,34.780707],[97.60482,34.784534],[97.581271,34.79572],[97.565964,34.814853],[97.546241,34.870488],[97.545358,34.889328],[97.5536,34.906401],[97.591573,34.946434],[97.61159,34.957914],[97.636905,34.963507],[97.671935,34.965274],[97.6581,34.968806],[97.644559,34.967628],[97.632784,34.970572],[97.623953,34.986173],[97.631018,35.000008],[97.636317,35.007073],[97.64397,35.013549],[97.634551,35.025618],[97.650446,35.042397],[97.676939,35.058293],[97.692246,35.068301],[97.72963,35.085963],[97.746998,35.088612],[97.768486,35.087729],[97.768486,35.081253],[97.764071,35.06889],[97.771135,35.051228],[97.804399,35.020908],[97.808225,35.010017],[97.80587,35.000008],[97.792918,34.987351],[97.788503,34.978814],[97.788503,34.969983],[97.790564,34.961447],[97.794685,34.951438],[97.796451,34.925829],[97.800278,34.914643],[97.808225,34.903751],[97.855324,34.887267],[97.862977,34.879908],[97.867981,34.871666]]]}},{"type":"Feature","properties":{"featurecla":"Lake","scalerank":5,"name":"Gyaring Hu","name_abb":"Gyaring Hu","name_alt":null,"note":null,"delta":null,"dam_name":null,"year":-99,"admin":null,"min_zoom":4.7,"min_label":6,"label":"Gyaring Hu","wikidataid":"Q4128895","name_ar":"بحيرة جيرنج","name_bn":"গ্যারিং হু","name_de":"Gyaring Hu","name_en":"Gyaring","name_es":"Zaling","name_fr":"Gyaring","name_el":"Γκιάρινγκ Χου","name_hi":"ग्यारिंग हु","name_hu":"Gyaring Hu","name_id":"Danau Gyaring","name_it":"Gyaring Hu","name_ja":"ギャリン湖","name_ko":"갸링 후","name_nl":"Gyaring Lake","name_pl":"Gyaring Co","name_pt":"Lago Gyaring","name_ru":"Джарин-Нур","name_sv":"Zhalinghu","name_tr":"Gyaring Hu","name_vi":"Hồ Trát Lăng","name_zh":"扎陵湖","ne_id":1159114475,"name_fa":"جیارینگ هو","name_he":"גיירינג","name_uk":"Джарін-Ху","name_ur":"گیرانگ ہو","name_zht":"扎陵湖"},"bbox":[97.055831,34.829277,97.48678,35.034155],"geometry":{"type":"Polygon","coordinates":[[[97.436738,34.994416],[97.466174,34.992355],[97.48678,34.983818],[97.486191,34.96704],[97.472062,34.956148],[97.452045,34.965274],[97.445863,34.93672],[97.396116,34.90905],[97.383752,34.886973],[97.378748,34.872843],[97.366679,34.864307],[97.342247,34.855181],[97.318109,34.835165],[97.304274,34.829277],[97.288378,34.835459],[97.248345,34.836048],[97.109699,34.917292],[97.083795,34.926123],[97.069371,34.935248],[97.06319,34.949378],[97.061718,34.972633],[97.056419,34.988234],[97.055831,34.997948],[97.061718,35.006779],[97.074376,35.012077],[97.085856,35.009723],[97.093804,35.000892],[97.095864,34.986173],[97.107344,34.998242],[97.113526,35.016493],[97.122946,35.027973],[97.162979,35.012961],[97.250111,35.013549],[97.263063,35.016493],[97.288378,35.030034],[97.300742,35.034155],[97.317226,35.034155],[97.333122,35.030622],[97.413189,35.000008],[97.436738,34.994416]]]}},{"type":"Feature","properties":{"featurecla":"Lake","scalerank":5,"name":"Mapam Yumco","name_abb":"Mapam Yumco","name_alt":null,"note":null,"delta":null,"dam_name":null,"year":-99,"admin":null,"min_zoom":4.7,"min_label":6,"label":"Mapam Yumco","wikidataid":"Q233627","name_ar":"بحيرة ماناساروفار","name_bn":"মানস সরোবর","name_de":"Manasarovar","name_en":"Manasarovar","name_es":"Mana Sarovar","name_fr":"Manasarovar","name_el":"Μάπαμ Γιουμκό","name_hi":"मानसरोवर","name_hu":"Manaszarovar-tó","name_id":"Mansarovar","name_it":"Manasarovar","name_ja":"マナサロワール湖","name_ko":"마나사로바 호수","name_nl":"Manasarovar","name_pl":"Mapam Yumco","name_pt":"Manasarovar","name_ru":"Мапам-Юмцо","name_sv":"Manasarovar","name_tr":"Manasarovar","name_vi":"Manasarovar","name_zh":"玛旁雍错","ne_id":1159114553,"name_fa":"دریاچه ماناساروار","name_he":"מפוטו","name_uk":"Манасаровар","name_ur":"جھیل ماناساروار","name_zht":"瑪旁雍錯"},"bbox":[81.362102,30.565413,81.60348,30.788541],"geometry":{"type":"Polygon","coordinates":[[[81.57787,30.748507],[81.602891,30.722603],[81.60348,30.690223],[81.574338,30.655783],[81.540192,30.634],[81.509578,30.607213],[81.498392,30.601325],[81.451294,30.566296],[81.445407,30.565413],[81.424212,30.566296],[81.430394,30.566296],[81.412438,30.579837],[81.394482,30.584547],[81.377409,30.592494],[81.362102,30.614277],[81.378586,30.641359],[81.369166,30.724075],[81.375642,30.764403],[81.406551,30.788541],[81.450411,30.787658],[81.53401,30.764403],[81.57787,30.748507]]]}},{"type":"Feature","properties":{"featurecla":"Lake","scalerank":5,"name":"Tangra Yumco","name_abb":"Tangra Yumco","name_alt":null,"note":null,"delta":null,"dam_name":null,"year":-99,"admin":null,"min_zoom":4.7,"min_label":6,"label":"Tangra Yumco","wikidataid":"Q659377","name_ar":"تانجرا يومكو","name_bn":"ট্যাংরা ইয়ামকো","name_de":"Tangra Yumco","name_en":"Tangra Yumco","name_es":"Tangra Yumco","name_fr":"Tangra Yumco","name_el":"Τάνγκρα Γιούμκο","name_hi":"तंगरा युमको","name_hu":"Tangra Yumco","name_id":"Tangra Yumco","name_it":"Tangra Yumco","name_ja":"タンラ・ユムツォ","name_ko":"탕그라 윰코","name_nl":"Tangra Yumco","name_pl":"Tangra Yumco","name_pt":"Tangra Yumco","name_ru":"Данграюм","name_sv":"Tangra Yumco","name_tr":"Tangra Yumco","name_vi":"Hồ Tangra Yumco","name_zh":"当惹雍错","ne_id":1159114759,"name_fa":"تانگرا یومکو","name_he":"אגם טאנגרה יומקו","name_uk":"Тангра Юмко","name_ur":"تانگرا یمکو","name_zht":"当惹雍错"},"bbox":[86.374828,30.769113,86.796063,31.368733],"geometry":{"type":"Polygon","coordinates":[[[86.768982,31.223611],[86.77899,31.180928],[86.796063,31.141778],[86.773986,31.122939],[86.748671,31.119406],[86.686854,31.121172],[86.659184,31.113519],[86.634752,31.099389],[86.614146,31.078784],[86.597368,31.052291],[86.609142,31.026387],[86.606787,31.001955],[86.59619,30.980466],[86.583827,30.963688],[86.567342,30.94632],[86.559689,30.936312],[86.552035,30.913646],[86.529664,30.894218],[86.521716,30.88156],[86.520833,30.869491],[86.527309,30.849769],[86.529369,30.836522],[86.524954,30.824159],[86.514946,30.813562],[86.47344,30.780887],[86.451069,30.769113],[86.429874,30.770585],[86.412507,30.784714],[86.408091,30.80061],[86.374828,30.864193],[86.376006,30.871257],[86.389841,30.874201],[86.406325,30.875673],[86.416039,30.878028],[86.421632,30.885092],[86.426636,30.89304],[86.433112,30.908936],[86.442238,30.950147],[86.446653,30.987531],[86.454012,30.999894],[86.501405,31.03875],[86.513768,31.054057],[86.519067,31.05965],[86.529369,31.066126],[86.552919,31.075252],[86.565576,31.082022],[86.570875,31.08997],[86.574996,31.112636],[86.605021,31.169742],[86.615029,31.211248],[86.620622,31.265705],[86.629748,31.284544],[86.631514,31.29573],[86.630336,31.307211],[86.625627,31.32811],[86.625627,31.339885],[86.647704,31.368733],[86.689798,31.368438],[86.734247,31.34695],[86.761917,31.313098],[86.766333,31.291904],[86.768982,31.223611]]]}},{"type":"Feature","properties":{"featurecla":"Lake","scalerank":5,"name":"Yamzho Yumco","name_abb":"Yamzho Yumco","name_alt":null,"note":null,"delta":null,"dam_name":null,"year":-99,"admin":null,"min_zoom":4.7,"min_label":6,"label":"Yamzho Yumco","wikidataid":"Q939604","name_ar":"بحيرة يامدروك","name_bn":"ইয়ামড্রক হ্রদ","name_de":"Yamzhog Yumco","name_en":"Yamdrok","name_es":"Yamdrok","name_fr":"Yamdrok-Tso","name_el":"Γιάμζο Γιο΄ύμκο","name_hi":"यमद्रोक झील","name_hu":"Jamdok-tó","name_id":"Yamdrok","name_it":"Yamzho Yumco","name_ja":"ヤムドク湖","name_ko":"암드록쵸 호수","name_nl":"Yamdrok","name_pl":"Yamzho Yumco","name_pt":"Lago Yamdrok","name_ru":"Ямджо-Юмцо","name_sv":"Yamzho Yumco","name_tr":"Yamdrok","name_vi":"Yamdrok","name_zh":"羊卓雍错","ne_id":1159114885,"name_fa":"یامژو یومکو","name_he":"אגם יאמזו יומקו","name_uk":"Ямжжо-Юмцо","name_ur":"یامزو یمکو","name_zht":"羊卓雍錯"},"bbox":[90.361107,28.780683,91.041972,29.199858],"geometry":{"type":"Polygon","coordinates":[[[91.017539,28.870759],[91.002232,28.876057],[90.915101,28.93964],[90.905387,28.93493],[90.899205,28.935813],[90.895084,28.941995],[90.893906,28.952886],[90.887136,28.952886],[90.884487,28.937874],[90.877716,28.927277],[90.867119,28.919034],[90.85299,28.911675],[90.851224,28.919329],[90.851224,28.925805],[90.853873,28.931986],[90.85976,28.93964],[90.844748,28.939934],[90.833562,28.936696],[90.811484,28.926099],[90.810601,28.933753],[90.80648,28.945821],[90.805303,28.952886],[90.794117,28.937874],[90.775278,28.925216],[90.757616,28.922567],[90.749962,28.936402],[90.752023,28.940523],[90.756733,28.94435],[90.761443,28.948765],[90.763503,28.956419],[90.759382,28.963189],[90.749374,28.967899],[90.729357,28.974375],[90.725824,28.961128],[90.722586,28.952886],[90.764386,28.896957],[90.766152,28.87223],[90.729357,28.857218],[90.735244,28.868109],[90.733772,28.874291],[90.728474,28.878706],[90.722586,28.885182],[90.719643,28.88636],[90.701981,28.903139],[90.702275,28.905788],[90.689323,28.90932],[90.67225,28.910203],[90.656649,28.905788],[90.647524,28.891953],[90.682259,28.88842],[90.680198,28.878706],[90.604252,28.8216],[90.599248,28.812769],[90.597776,28.796579],[90.593066,28.785687],[90.582763,28.780683],[90.56569,28.782155],[90.56569,28.788337],[90.553621,28.785393],[90.523891,28.786276],[90.517709,28.785099],[90.514765,28.781861],[90.507406,28.782155],[90.499753,28.785687],[90.496809,28.792163],[90.498575,28.798639],[90.502402,28.806293],[90.505051,28.814535],[90.50358,28.823072],[90.491216,28.833374],[90.456187,28.846032],[90.448828,28.85398],[90.444707,28.868109],[90.437642,28.882533],[90.437348,28.893719],[90.45236,28.898135],[90.459131,28.896074],[90.471788,28.887243],[90.48003,28.885182],[90.490333,28.884299],[90.492982,28.88165],[90.493277,28.877235],[90.496809,28.870759],[90.495632,28.867521],[90.491805,28.862222],[90.490333,28.856335],[90.496809,28.851036],[90.504168,28.850448],[90.510939,28.854274],[90.515943,28.860456],[90.517709,28.867815],[90.520064,28.871347],[90.524774,28.871053],[90.529189,28.867815],[90.531544,28.861045],[90.530367,28.853391],[90.524185,28.836612],[90.523008,28.823366],[90.524774,28.813063],[90.533016,28.807765],[90.551855,28.809531],[90.547145,28.819245],[90.544496,28.823072],[90.549795,28.826015],[90.559803,28.833963],[90.56569,28.836612],[90.553621,28.845443],[90.558626,28.876057],[90.551855,28.891953],[90.563335,28.890481],[90.573049,28.891953],[90.580703,28.896957],[90.586296,28.905788],[90.58659,28.907849],[90.630745,28.915208],[90.641342,28.919623],[90.640164,28.926099],[90.629273,28.930515],[90.606607,28.934341],[90.599248,28.93964],[90.59601,28.950531],[90.600425,28.959068],[90.609845,28.964955],[90.623386,28.967016],[90.648701,28.965838],[90.661653,28.966427],[90.671073,28.970842],[90.68373,28.979085],[90.691089,28.979085],[90.694622,28.982028],[90.695211,28.998218],[90.690501,29.022062],[90.678432,29.041195],[90.647524,29.076225],[90.665774,29.086822],[90.66548,29.11302],[90.656649,29.139807],[90.650762,29.152171],[90.63781,29.155114],[90.628684,29.169244],[90.603663,29.174542],[90.583647,29.183668],[90.572461,29.186317],[90.545674,29.181902],[90.502402,29.157764],[90.460602,29.145989],[90.435876,29.130977],[90.39437,29.097419],[90.399669,29.086528],[90.396725,29.078874],[90.390544,29.077697],[90.387306,29.086822],[90.381418,29.099774],[90.369349,29.105661],[90.361107,29.111548],[90.366406,29.124795],[90.380535,29.111843],[90.400846,29.125384],[90.423512,29.147461],[90.44559,29.158941],[90.473849,29.165123],[90.520947,29.193382],[90.548323,29.199858],[90.606607,29.194559],[90.661064,29.179252],[90.675783,29.171304],[90.68844,29.162473],[90.701981,29.155114],[90.734067,29.148933],[90.741131,29.142162],[90.738188,29.134803],[90.722586,29.130977],[90.731712,29.115964],[90.73701,29.11096],[90.729357,29.103601],[90.722586,29.107722],[90.715816,29.11096],[90.719937,29.056797],[90.726119,29.048849],[90.730829,29.045905],[90.736422,29.038841],[90.743781,29.031776],[90.753789,29.028538],[90.763209,29.029715],[90.781165,29.034131],[90.791468,29.035308],[90.784697,29.023239],[90.773806,29.016469],[90.759382,29.014114],[90.743192,29.015586],[90.759088,28.99969],[90.782342,28.986149],[90.832384,28.967016],[90.832384,28.974375],[90.818255,28.980851],[90.823259,28.992625],[90.846219,29.015586],[90.839449,29.015586],[90.844748,29.024417],[90.846219,29.028538],[90.861821,29.019118],[90.874184,29.020001],[90.88537,29.0253],[90.898027,29.028538],[90.932762,29.028243],[90.94542,29.024417],[90.941888,29.015586],[90.953662,29.001751],[90.963376,28.993803],[91.013418,28.967604],[91.022838,28.957302],[91.017539,28.946705],[91.004882,28.944644],[90.991341,28.950531],[90.978978,28.957596],[90.969852,28.960245],[90.953074,28.953181],[90.951896,28.94435],[90.95955,28.934636],[90.969852,28.926099],[91.02431,28.891953],[91.041972,28.874585],[91.017539,28.870759]]]}},{"type":"Feature","properties":{"featurecla":"Lake","scalerank":5,"name":"Chao Hu","name_abb":"Chao Hu","name_alt":null,"note":null,"delta":null,"dam_name":null,"year":-99,"admin":null,"min_zoom":4.7,"min_label":6,"label":"Chao Hu","wikidataid":"Q1062495","name_ar":"بحيرة تشاو","name_bn":"শাও হু","name_de":"Chao Hu","name_en":"Chao","name_es":"Chao","name_fr":"Chao","name_el":"Τσάο Χου","name_hi":"चाओ हु","name_hu":"Chao Hu","name_id":"Danau Chao","name_it":"Lago di Chao Hu","name_ja":"巣湖","name_ko":"차오호","name_nl":"Chao","name_pl":"Chaohu","name_pt":"Lago Chao","name_ru":"Чаоху","name_sv":"Chao Hu","name_tr":"Chao Hu","name_vi":"Sào","name_zh":"巢湖","ne_id":1159115069,"name_fa":"چائو هو","name_he":"צ'או","name_uk":"Чаоху","name_ur":"چاؤ ہو","name_zht":"巢湖"},"bbox":[117.288066,31.438497,117.955389,31.72403],"geometry":{"type":"Polygon","coordinates":[[[117.936256,31.548295],[117.95274,31.526806],[117.955389,31.497958],[117.932429,31.515032],[117.925659,31.524157],[117.928602,31.531516],[117.928602,31.538875],[117.911529,31.548589],[117.875322,31.563602],[117.84618,31.583324],[117.834994,31.588034],[117.820865,31.588917],[117.798493,31.586856],[117.778476,31.591272],[117.768174,31.591272],[117.749923,31.559481],[117.734322,31.545057],[117.70047,31.522391],[117.685163,31.508556],[117.661025,31.475881],[117.647484,31.46234],[117.625113,31.455276],[117.617459,31.446445],[117.612749,31.443501],[117.606273,31.442324],[117.595971,31.443501],[117.562413,31.443501],[117.557998,31.439969],[117.547989,31.438497],[117.500008,31.452921],[117.471455,31.469994],[117.455559,31.476176],[117.442018,31.484123],[117.43407,31.497958],[117.416409,31.517387],[117.383734,31.542996],[117.376375,31.54594],[117.359596,31.548295],[117.338402,31.554771],[117.317797,31.563602],[117.304256,31.573021],[117.288066,31.611583],[117.288949,31.661036],[117.306316,31.704308],[117.338991,31.72403],[117.360479,31.720498],[117.396097,31.70107],[117.438192,31.690178],[117.439369,31.673988],[117.432304,31.653971],[117.427594,31.635132],[117.434954,31.611583],[117.452027,31.596865],[117.474693,31.588917],[117.545929,31.580086],[117.563296,31.583324],[117.585374,31.600397],[117.622758,31.642786],[117.645424,31.657504],[117.678098,31.663097],[117.706652,31.659859],[117.84618,31.607756],[117.857072,31.598631],[117.880621,31.571844],[117.890335,31.566251],[117.913295,31.561541],[117.936256,31.548295]]]}},{"type":"Feature","properties":{"featurecla":"Lake","scalerank":5,"name":"Weishan Hu","name_abb":"Weishan Hu","name_alt":null,"note":null,"delta":null,"dam_name":null,"year":-99,"admin":null,"min_zoom":4.7,"min_label":6,"label":"Weishan Hu","wikidataid":"Q839287","name_ar":"بحيرة وايشان","name_bn":"উইশান হু","name_de":"Weishan Lake","name_en":"Nansi","name_es":"Nansi","name_fr":"Lac de Weishan","name_el":"Γουεϊσάν Χου","name_hi":"वीशान हु","name_hu":"Weishan Hu","name_id":"Danau Weishan","name_it":"Weishan Hu","name_ja":"囲山湖","name_ko":"웨이산 후","name_nl":"Nansi","name_pl":"Jezioro Weishan","name_pt":"Lago Weishan","name_ru":"Наньсыху","name_sv":"Weishan Hu","name_tr":"Weishan Hu","name_vi":"Hồ Vi Sơn","name_zh":"微山湖","ne_id":1159115165,"name_fa":"ویشان هو","name_he":"אגם ווישאן","name_uk":"Вейшанху","name_ur":"ویشان ہو","name_zht":"微山湖"},"bbox":[117.117923,34.472508,117.342818,34.755981],"geometry":{"type":"Polygon","coordinates":[[[117.327511,34.627344],[117.338991,34.612331],[117.342818,34.591431],[117.340463,34.579951],[117.318385,34.569943],[117.306316,34.559051],[117.261867,34.505477],[117.260101,34.499589],[117.2445,34.49694],[117.229193,34.49017],[117.201817,34.472508],[117.196519,34.486343],[117.201523,34.512836],[117.195047,34.527554],[117.180329,34.524022],[117.169143,34.536091],[117.129109,34.637352],[117.126166,34.660018],[117.134113,34.702701],[117.134113,34.723601],[117.122928,34.732432],[117.117923,34.738024],[117.124694,34.748916],[117.134996,34.755981],[117.140295,34.749799],[117.142356,34.740379],[117.147654,34.734492],[117.156191,34.732137],[117.160312,34.732432],[117.185333,34.718302],[117.234197,34.69858],[117.256569,34.68445],[117.327511,34.627344]]]}},{"type":"Feature","properties":{"featurecla":"Lake","scalerank":7,"name":"Dongting Hu","name_abb":"Dongting Hu","name_alt":null,"note":null,"delta":null,"dam_name":null,"year":-99,"admin":null,"min_zoom":5.7,"min_label":6.7,"label":"Dongting Hu","wikidataid":"Q216083","name_ar":"بحيرة دونجتنج","name_bn":"দোংতিং হ্রদ","name_de":"Dongting","name_en":"Dongting","name_es":"Dongting","name_fr":"Dongting","name_el":"Λίμνη Ντονγκτίνγκ","name_hi":"दोंगतिंग झील","name_hu":"Tungting-tó","name_id":"Dongting","name_it":"Dongting","name_ja":"洞庭湖","name_ko":"둥팅호","name_nl":"Dongtingmeer","name_pl":"Dongting Hu","name_pt":"Dongting","name_ru":"Дунтинху","name_sv":"Dongting-sjön","name_tr":"Dongting","name_vi":"Động Đình","name_zh":"洞庭湖","ne_id":1159116351,"name_fa":"دریاچه دونگینگ","name_he":"אגם דונגטינג","name_uk":"Дунтін","name_ur":"ڈانگ ٹنگ ہو","name_zht":"洞庭湖"},"bbox":[111.96243,28.756545,112.90469,29.085939],"geometry":{"type":"Polygon","coordinates":[[[112.877314,28.997924],[112.885262,29.016175],[112.90469,29.031481],[112.903807,29.013525],[112.883201,28.987916],[112.878197,28.966133],[112.857297,28.915796],[112.859358,28.904316],[112.863184,28.891953],[112.864362,28.880473],[112.858769,28.860162],[112.846994,28.8425],[112.831099,28.830136],[112.804017,28.823072],[112.792537,28.818656],[112.781351,28.817184],[112.771343,28.821894],[112.766338,28.832786],[112.768988,28.841911],[112.775758,28.848976],[112.78194,28.853391],[112.801662,28.859278],[112.824328,28.861045],[112.842579,28.866638],[112.850232,28.883711],[112.842284,28.908732],[112.823151,28.90932],[112.78194,28.886654],[112.711292,28.867226],[112.700695,28.856335],[112.696869,28.848093],[112.688038,28.847798],[112.669198,28.853391],[112.659779,28.848093],[112.658012,28.836318],[112.659484,28.822483],[112.658307,28.811591],[112.650653,28.804527],[112.619156,28.781272],[112.61062,28.776856],[112.605321,28.780683],[112.603261,28.785982],[112.603849,28.801289],[112.600317,28.81012],[112.593252,28.811591],[112.585893,28.811591],[112.582655,28.815124],[112.575591,28.838379],[112.558223,28.820717],[112.536734,28.793047],[112.517306,28.787454],[112.504354,28.791575],[112.473446,28.781272],[112.456079,28.787454],[112.411335,28.825427],[112.380721,28.863694],[112.360116,28.881356],[112.336861,28.886654],[112.34216,28.867521],[112.338333,28.832197],[112.343043,28.811591],[112.331563,28.815713],[112.32597,28.825427],[112.32332,28.835141],[112.319494,28.839556],[112.312429,28.836024],[112.307719,28.828076],[112.302715,28.811591],[112.324204,28.783921],[112.329208,28.770675],[112.322437,28.770675],[112.312723,28.785982],[112.302715,28.798051],[112.296828,28.789514],[112.295062,28.780683],[112.296828,28.772147],[112.302715,28.763904],[112.29094,28.769792],[112.280343,28.773618],[112.272395,28.770969],[112.26798,28.756545],[112.26121,28.756545],[112.26327,28.773324],[112.27269,28.785099],[112.283581,28.795401],[112.288291,28.808353],[112.288291,28.816007],[112.287408,28.824543],[112.283287,28.825721],[112.27475,28.811591],[112.26798,28.811591],[112.266508,28.815418],[112.26121,28.825427],[112.248552,28.807765],[112.240604,28.790692],[112.233245,28.790692],[112.230301,28.804527],[112.233539,28.817773],[112.240604,28.832197],[112.227358,28.840145],[112.214111,28.835141],[112.202042,28.823366],[112.192917,28.811591],[112.188796,28.824249],[112.185264,28.853391],[112.186441,28.858395],[112.193212,28.861339],[112.192917,28.866343],[112.189385,28.871936],[112.185852,28.872819],[112.181143,28.873114],[112.17555,28.877235],[112.167602,28.884888],[112.159065,28.890187],[112.149351,28.89313],[112.123742,28.896663],[112.089301,28.914619],[112.001875,28.931398],[111.96243,28.950826],[111.966257,28.982911],[111.978326,28.987916],[111.996871,28.983794],[112.013649,28.975258],[112.029545,28.954358],[112.049562,28.949943],[112.089301,28.948765],[112.142287,28.934636],[112.151412,28.938168],[112.157593,28.956124],[112.172017,28.963483],[112.187913,28.967604],[112.199099,28.976141],[112.201159,29.007049],[112.1938,29.042667],[112.194389,29.072398],[112.220293,29.085939],[112.252673,29.076814],[112.263859,29.052087],[112.268274,29.024122],[112.281521,29.004106],[112.269746,28.973492],[112.26798,28.963189],[112.26798,28.951709],[112.282993,28.865754],[112.294178,28.860162],[112.31655,28.873702],[112.31655,28.880473],[112.303892,28.889598],[112.307425,28.908732],[112.319199,28.924627],[112.333329,28.924922],[112.351874,28.913441],[112.394262,28.89578],[112.411335,28.880473],[112.413985,28.873114],[112.415162,28.854569],[112.418106,28.845738],[112.425465,28.835729],[112.428997,28.834552],[112.433118,28.837495],[112.466381,28.844855],[112.476684,28.845738],[112.479333,28.849859],[112.473741,28.870759],[112.472857,28.880473],[112.483455,28.896368],[112.503177,28.906965],[112.525843,28.912853],[112.586482,28.914619],[112.597079,28.911087],[112.612975,28.89313],[112.624161,28.886654],[112.634463,28.886654],[112.65448,28.89313],[112.665666,28.894308],[112.675969,28.891658],[112.691276,28.882533],[112.703345,28.880473],[112.725127,28.882828],[112.745733,28.889304],[112.78194,28.907849],[112.816086,28.935224],[112.847289,28.947882],[112.857591,28.95583],[112.871426,28.977318],[112.877314,28.997924]]]}},{"type":"Feature","properties":{"featurecla":"Lake","scalerank":9,"name":"Ebinur Hu","name_abb":"Ebinur Hu","name_alt":null,"note":null,"delta":null,"dam_name":null,"year":-99,"admin":null,"min_zoom":7,"min_label":8,"label":"Ebinur Hu","wikidataid":"Q31845317","name_ar":"بيحبرة إبينور","name_bn":"এবিনুর হু","name_de":"Ebinur-See","name_en":"Lake Ebinur","name_es":"Ebinur Hu","name_fr":"Ebinur Hu","name_el":"Εμπινούρ Χου","name_hi":"एबिनूर हु","name_hu":"Ebinur Hu","name_id":"Danau Ebinur","name_it":"Ebinur Hu","name_ja":"エビ湖","name_ko":"에비누르 후","name_nl":"Ebi Lake","name_pl":"Jezioro Ebinur","name_pt":"Lago Ebinur","name_ru":"озеро Эбинур","name_sv":"Ebinur Hu","name_tr":"Ebinur Hu","name_vi":"Hồ Ebi","name_zh":"艾比湖","ne_id":1159118103,"name_fa":"ابینورهو","name_he":"אבינור","name_uk":"Ебінур","name_ur":"ایبینور ہو","name_zht":"艾比湖"},"bbox":[82.68468,44.751703,83.164493,44.992788],"geometry":{"type":"Polygon","coordinates":[[[83.121516,44.907716],[83.153896,44.87828],[83.164493,44.840307],[83.148597,44.802334],[83.11504,44.772309],[83.072063,44.754353],[83.027319,44.751703],[83.00642,44.757591],[82.973451,44.774664],[82.9552,44.778196],[82.932829,44.785555],[82.89044,44.820585],[82.86954,44.833537],[82.766513,44.843545],[82.755327,44.853553],[82.701753,44.875336],[82.68468,44.887994],[82.707934,44.908894],[82.757093,44.937447],[82.777404,44.953048],[82.788296,44.966883],[82.794477,44.977481],[82.803014,44.985428],[82.821265,44.991021],[82.834805,44.992788],[82.876899,44.991316],[82.89515,44.986017],[82.972862,44.973654],[83.041155,44.943334],[83.080011,44.929205],[83.121516,44.907716]]]}},{"type":"Feature","properties":{"featurecla":"Reservoir","scalerank":7,"name":"Danjiangkou Shuiku","name_abb":"Danjiangkou Sk.","name_alt":null,"note":null,"delta":null,"dam_name":null,"year":-99,"admin":null,"min_zoom":5.7,"min_label":6.7,"label":"Danjiangkou Shuiku","wikidataid":"Q28798322","name_ar":"دانجيانجكو شويكو","name_bn":"দাঞ্জিয়াঙ্গকৌ শুইকু","name_de":"Danjiangkou-Talsperre","name_en":"Danjiangkou Shuiku","name_es":"Danjiangkou Shuiku","name_fr":"Danjiangkou Shuiku","name_el":"Νταντζιανγκού Σουϊκού","name_hi":"डेंजियांगकोउ शुइकु","name_hu":"Danjiangkou Shuiku","name_id":"Reservoir Danjiangkou","name_it":"Danjiangkou Shuiku","name_ja":"丹江口ダム","name_ko":"단장커우 저수지","name_nl":"Danjiangkou Shuiku","name_pl":"Danjiangkou Shuiku","name_pt":"Barragem de Danjiangkou","name_ru":"водохранилище Даньцзянкоушуйку","name_sv":"Danjiangkou Shuiku","name_tr":"Danjiangkou Shuiku","name_vi":"Hồ Đơn Giang Khẩu","name_zh":"丹江口水库","ne_id":1159125505,"name_fa":"دانجیانگکو شوئیکو","name_he":"דנג'יאנגקו שויקו","name_uk":"Данджангкоу Шуіку","name_ur":"ڈانجیانگکو شوئیکو","name_zht":"丹江口水库"},"bbox":[110.999859,32.507922,111.692204,33.0575],"geometry":{"type":"Polygon","coordinates":[[[111.679252,32.66629],[111.689849,32.658047],[111.692204,32.648922],[111.683962,32.642741],[111.669832,32.642152],[111.623617,32.649511],[111.604189,32.648922],[111.520884,32.636853],[111.505283,32.627139],[111.490859,32.607123],[111.482028,32.579452],[111.476435,32.566795],[111.465838,32.557669],[111.456124,32.557081],[111.445821,32.560319],[111.43493,32.562674],[111.423155,32.558258],[111.406965,32.549721],[111.386654,32.542657],[111.366637,32.53883],[111.351919,32.539419],[111.343088,32.5456],[111.337201,32.554726],[111.329842,32.562085],[111.316301,32.564145],[111.303937,32.559141],[111.292752,32.54825],[111.274501,32.524995],[111.254779,32.507922],[111.250363,32.51793],[111.25625,32.541185],[111.268614,32.56444],[111.284509,32.58534],[111.284509,32.590932],[111.271557,32.592699],[111.248008,32.602413],[111.213862,32.64068],[111.193257,32.650394],[111.174123,32.629494],[111.157344,32.560319],[111.139388,32.53412],[111.105536,32.533531],[111.091701,32.542068],[111.082281,32.553843],[111.080221,32.5665],[111.089052,32.576803],[111.09906,32.576214],[111.109952,32.569444],[111.121432,32.565323],[111.133206,32.571799],[111.137327,32.584456],[111.132323,32.596525],[111.124375,32.6083],[111.119371,32.620663],[111.120843,32.633615],[111.134972,32.670411],[111.116722,32.663052],[111.077571,32.686601],[111.053434,32.688661],[111.028118,32.701319],[111.006041,32.723985],[110.999859,32.740764],[111.023114,32.736054],[111.030768,32.728401],[111.034006,32.719864],[111.03901,32.712505],[111.052551,32.709267],[111.066386,32.713977],[111.078749,32.723985],[111.091701,32.731639],[111.108185,32.730167],[111.123787,32.724868],[111.153223,32.718687],[111.165881,32.711916],[111.167647,32.707795],[111.169413,32.693666],[111.172062,32.688367],[111.180893,32.681597],[111.39313,32.591816],[111.411086,32.589755],[111.421683,32.595054],[111.420211,32.60359],[111.416385,32.612715],[111.419623,32.618603],[111.43228,32.616248],[111.457007,32.597408],[111.469959,32.595937],[111.478201,32.604768],[111.481733,32.618897],[111.481439,32.634498],[111.479084,32.646567],[111.471725,32.660402],[111.451414,32.685423],[111.446115,32.699553],[111.445527,32.711033],[111.447882,32.723102],[111.454063,32.730167],[111.465249,32.72634],[111.489093,32.711622],[111.493214,32.717803],[111.484088,32.753421],[111.490859,32.778148],[111.516763,32.836727],[111.517351,32.864397],[111.50646,32.878821],[111.486149,32.894716],[111.445232,32.920032],[111.317773,32.968602],[111.25625,33.00422],[111.225048,33.0575],[111.241827,33.049552],[111.303643,33.003337],[111.324837,32.991268],[111.344854,32.984203],[111.38842,32.974195],[111.421389,32.961831],[111.439345,32.957121],[111.454063,32.960065],[111.459362,32.96919],[111.458773,32.991268],[111.463483,32.996566],[111.471136,32.992445],[111.511759,32.953295],[111.510581,32.947113],[111.504105,32.942992],[111.500278,32.938577],[111.505577,32.920032],[111.529126,32.894422],[111.541195,32.875583],[111.547965,32.851739],[111.549437,32.836432],[111.558268,32.826424],[111.610076,32.810234],[111.630387,32.79581],[111.644517,32.775499],[111.64746,32.750772],[111.639513,32.733699],[111.626855,32.713977],[111.623028,32.702496],[111.640984,32.709856],[111.648049,32.709856],[111.650993,32.701025],[111.652759,32.68925],[111.657469,32.679242],[111.679252,32.66629]]]}},{"type":"Feature","properties":{"featurecla":"Reservoir","scalerank":7,"name":"Xinanjiang Shuiku","name_abb":"Xinanjiang Sk.","name_alt":null,"note":null,"delta":null,"dam_name":null,"year":-99,"admin":null,"min_zoom":5.7,"min_label":6.7,"label":null,"wikidataid":null,"name_ar":"شينجيانغ شويكو","name_bn":"জিনজিয়াং শুইকু","name_de":"Qiandao-See","name_en":"Qiandao Lake","name_es":"Xinanjiang Shuiku","name_fr":"Lac Qiandao","name_el":"Ξινανγιάνγκ Σουικού","name_hi":"ज़िनानजियांग शुइकु","name_hu":"Hszincsiang Shuiku","name_id":"Reservoir Sungai Xin’an","name_it":"Xinanjiang Shuiku","name_ja":"新安江ダム","name_ko":"시난장 슈이쿠","name_nl":"Xin'an River Reservoir","name_pl":"Xinanjiang Shuiku","name_pt":"Xinanjiang Shuiku","name_ru":"водохранилище Синьаньцзян","name_sv":"Xinanjiang Shuiku","name_tr":"Xinanjiang Shuiku","name_vi":"Hồ chứa Thuần An Giang","name_zh":"新安江水库","ne_id":1159125639,"name_fa":"زینجیانگ شوئیکو","name_he":"שינאנג'יאנג שויקו","name_uk":"Сіндзян","name_ur":"زنگجیانگ شوئیکو","name_zht":"新安江水庫"},"bbox":[118.626245,29.403558,119.195545,29.812135],"geometry":{"type":"Polygon","coordinates":[[[119.188775,29.541026],[119.184065,29.536022],[119.18171,29.528074],[119.183182,29.519832],[119.186714,29.511589],[119.195545,29.49746],[119.169347,29.49952],[119.158455,29.50217],[119.153157,29.498343],[119.147858,29.490101],[119.139911,29.490689],[119.123426,29.496282],[119.11018,29.49746],[119.09399,29.484802],[119.083981,29.482153],[119.079566,29.493927],[119.073384,29.503347],[119.060138,29.504525],[119.046008,29.501287],[119.038355,29.49746],[119.027169,29.507468],[119.022459,29.516888],[119.017455,29.52513],[119.004503,29.531606],[118.989196,29.531312],[118.968296,29.514827],[118.942687,29.508057],[118.935916,29.501875],[118.930029,29.495105],[118.921787,29.490101],[118.912956,29.488335],[118.907069,29.488335],[118.900593,29.489512],[118.837304,29.49275],[118.826118,29.490101],[118.825235,29.476854],[118.830828,29.461547],[118.830828,29.450067],[118.811989,29.449184],[118.808457,29.453894],[118.803158,29.463314],[118.796093,29.472733],[118.788145,29.477149],[118.780492,29.475677],[118.761358,29.468907],[118.757237,29.466257],[118.743402,29.443886],[118.712788,29.417982],[118.682174,29.403558],[118.668045,29.415038],[118.668045,29.408268],[118.661863,29.417687],[118.651855,29.421808],[118.639492,29.422397],[118.626245,29.42122],[118.626245,29.428579],[118.646851,29.4327],[118.684235,29.42122],[118.701897,29.428579],[118.709845,29.446829],[118.699836,29.461547],[118.680408,29.471556],[118.661569,29.477149],[118.661569,29.483919],[118.67511,29.482742],[118.687179,29.480387],[118.698364,29.475971],[118.70955,29.469495],[118.71426,29.472145],[118.729861,29.483919],[118.726329,29.494516],[118.731628,29.500992],[118.757237,29.510706],[118.785202,29.528662],[118.788145,29.531606],[118.814638,29.537788],[118.861736,29.565752],[118.925025,29.582531],[118.927085,29.590773],[118.92738,29.60608],[118.925908,29.622859],[118.921787,29.634045],[118.904419,29.644348],[118.884402,29.644053],[118.840542,29.630218],[118.845252,29.641993],[118.833772,29.656711],[118.813755,29.669663],[118.771661,29.681437],[118.751056,29.697039],[118.716321,29.730302],[118.729273,29.727653],[118.746346,29.717939],[118.757237,29.715878],[118.763713,29.71941],[118.769012,29.725592],[118.77696,29.730891],[118.791383,29.730302],[118.779314,29.710285],[118.806102,29.687913],[118.847901,29.669369],[118.88087,29.661421],[118.891467,29.662304],[118.908835,29.667602],[118.918843,29.66878],[118.929735,29.66407],[118.933561,29.652884],[118.935033,29.640226],[118.93886,29.630807],[118.960643,29.621976],[118.98272,29.631396],[119.018044,29.661421],[119.000088,29.67084],[119.001854,29.680554],[119.011862,29.686736],[119.018044,29.685264],[119.023931,29.679083],[119.037766,29.674373],[119.053662,29.672607],[119.065142,29.674961],[119.05896,29.688502],[119.043653,29.71264],[119.038355,29.723532],[119.06367,29.704987],[119.074856,29.699394],[119.085748,29.702337],[119.093107,29.715878],[119.089574,29.731479],[119.071912,29.764448],[119.078683,29.779461],[119.089574,29.795062],[119.103409,29.807425],[119.11695,29.812135],[119.135789,29.810075],[119.130197,29.803304],[119.113418,29.792707],[119.099288,29.778578],[119.095756,29.746198],[119.123721,29.737367],[119.160222,29.737367],[119.18171,29.730302],[119.16817,29.72677],[119.123426,29.707047],[119.113418,29.698805],[119.065142,29.640815],[119.055428,29.635811],[119.046008,29.634339],[119.039532,29.630807],[119.038355,29.620504],[119.045125,29.609613],[119.067203,29.601959],[119.071912,29.589007],[119.078683,29.580765],[119.115478,29.60137],[119.134023,29.60608],[119.108119,29.556627],[119.108708,29.53926],[119.140794,29.538376],[119.171702,29.554272],[119.188186,29.558688],[119.195545,29.548385],[119.193485,29.544558],[119.188775,29.541026]]]}},{"type":"Feature","properties":{"featurecla":"Alkaline Lake","scalerank":3,"name":"Qinghai Hu","name_abb":"Qinghai Hu","name_alt":"Koko Nor","note":null,"delta":null,"dam_name":null,"year":-99,"admin":null,"min_zoom":3,"min_label":4,"label":"Qinghai Hu","wikidataid":"Q201294","name_ar":"بحيرة تشينغهاي","name_bn":"কোইংহাই হু","name_de":"Qinghai","name_en":"Qinghai","name_es":"Qinghai","name_fr":"Qinghai","name_el":"Λίμνη Τσινγκχάι","name_hi":"चिंगहई झील","name_hu":"Csinghaj-tó","name_id":"Qinghai","name_it":"Qinghai","name_ja":"青海湖","name_ko":"칭하이호","name_nl":"Qinghaimeer","name_pl":"Kuku-nor","name_pt":"Chingai","name_ru":"Кукунор","name_sv":"Qinghaisjön","name_tr":"Koko Nor","name_vi":"Thanh Hải","name_zh":"青海湖","ne_id":1159126725,"name_fa":"دریاچه چینگهای","name_he":"ימת צ'ינגהאי","name_uk":"Кукунор","name_ur":"جھیل چنگھائی","name_zht":"青海湖"},"bbox":[99.617682,36.541005,100.765996,37.227756],"geometry":{"type":"Polygon","coordinates":[[[100.717426,36.853325],[100.751867,36.82536],[100.765996,36.804461],[100.761581,36.781206],[100.743036,36.773258],[100.72037,36.776496],[100.70153,36.776202],[100.693288,36.757362],[100.698881,36.74441],[100.734499,36.706143],[100.741858,36.684066],[100.73862,36.669642],[100.731555,36.655807],[100.72037,36.590164],[100.712716,36.566026],[100.703591,36.555429],[100.694466,36.553074],[100.6718,36.543654],[100.659142,36.541005],[100.649428,36.541593],[100.628234,36.54542],[100.559941,36.566614],[100.539924,36.568969],[100.498419,36.578389],[100.459269,36.599583],[100.445434,36.622838],[100.481052,36.63785],[100.481052,36.644032],[100.450143,36.64521],[100.440135,36.644032],[100.435425,36.641677],[100.423651,36.632552],[100.418941,36.630491],[100.410404,36.631669],[100.403045,36.636673],[100.395392,36.63785],[100.392742,36.644327],[100.390387,36.65669],[100.385383,36.665815],[100.366838,36.658162],[100.330337,36.650803],[100.300018,36.657573],[100.288832,36.657867],[100.276763,36.654629],[100.259101,36.646093],[100.220834,36.641677],[100.159017,36.62431],[100.133996,36.623721],[100.089253,36.634907],[100.022138,36.643738],[99.980927,36.657867],[99.943248,36.676412],[99.92647,36.68907],[99.907925,36.719978],[99.882315,36.722039],[99.836689,36.712325],[99.810785,36.713208],[99.797832,36.72351],[99.781642,36.760895],[99.791356,36.774435],[99.790473,36.79298],[99.780171,36.811231],[99.761626,36.822122],[99.723358,36.83272],[99.70187,36.84155],[99.682736,36.865983],[99.63711,36.889237],[99.623863,36.898068],[99.619153,36.908371],[99.617682,36.91838],[99.619153,36.928388],[99.623863,36.938985],[99.662131,36.96695],[99.682442,36.965772],[99.697454,36.961945],[99.733661,36.945755],[99.781642,36.937513],[99.820793,36.951348],[99.842281,36.981373],[99.836689,37.021407],[99.832567,37.037891],[99.830507,37.042012],[99.827269,37.044367],[99.81991,37.046722],[99.816966,37.048783],[99.780759,37.082046],[99.770162,37.105595],[99.760448,37.122079],[99.754561,37.142096],[99.761626,37.164762],[99.776933,37.178009],[99.796949,37.185073],[99.836689,37.192727],[99.893206,37.211566],[99.935006,37.215687],[99.967681,37.225401],[99.984165,37.227756],[99.999766,37.223929],[100.043038,37.199497],[100.079245,37.191255],[100.182861,37.192727],[100.192575,37.190078],[100.215535,37.180364],[100.223777,37.181835],[100.230548,37.187723],[100.239379,37.193316],[100.249387,37.198025],[100.258218,37.199497],[100.274702,37.196259],[100.286183,37.188606],[100.29678,37.17948],[100.296191,37.178597],[100.34741,37.117664],[100.441607,37.046134],[100.469571,37.017286],[100.559941,36.887471],[100.577897,36.870104],[100.593499,36.863628],[100.638831,36.863333],[100.649722,36.860684],[100.672094,36.851559],[100.679747,36.849498],[100.688578,36.853619],[100.695937,36.86039],[100.704474,36.862745],[100.717426,36.853325]]]}}],"bbox":[-165.965581688293,-50.6696665174836,177.15437916069,81.9552078693087]}